{
"type": "FeatureCollection",
"name": "hotosm_egy_railways_points_geojson",
"features": [
{ "type": "Feature", "properties": { "name": "محطة الشلال", "name:en": "Shallal", "railway": "station", "ele": null, "operator:type": null, "layer": null, "addr:full": null, "addr:city": null, "source": null, "name:ar": "محطة الشلال", "osm_id": 1091247513, "osm_type": "nodes" }, "geometry": { "type": "Point", "coordinates": [ 32.90961, 24.0380761 ] } },
{ "type": "Feature", "properties": { "name": "محطة الأشراف", "name:en": "Al Ashraf Station", "railway": "station", "ele": null, "operator:type": null, "layer": null, "addr:full": null, "addr:city": null, "source": null, "name:ar": "محطة الأشراف", "osm_id": 768084639, "osm_type": "nodes" }, "geometry": { "type": "Point", "coordinates": [ 32.783333, 26.083333 ] } },
{ "type": "Feature", "properties": { "name": "محطة أبنود", "name:en": "Mahattat Abnud", "railway": "station", "ele": null, "operator:type": null, "layer": null, "addr:full": null, "addr:city": null, "source": null, "name:ar": "محطة أبنود", "osm_id": 2723654290, "osm_type": "nodes" }, "geometry": { "type": "Point", "coordinates": [ 32.7967688, 26.0539769 ] } },
{ "type": "Feature", "properties": { "name": "نجع الكاجوج", "name:en": "Kagug", "railway": "station", "ele": null, "operator:type": null, "layer": null, "addr:full": null, "addr:city": null, "source": null, "name:ar": "نجع الكاجوج", "osm_id": 1320721139, "osm_type": "nodes" }, "geometry": { "type": "Point", "coordinates": [ 32.9471139, 24.6696422 ] } },
{ "type": "Feature", "properties": { "name": "سبية", "name:en": "Sebaiya", "railway": "station", "ele": null, "operator:type": null, "layer": null, "addr:full": null, "addr:city": null, "source": null, "name:ar": "سبية", "osm_id": 5218985313, "osm_type": "nodes" }, "geometry": { "type": "Point", "coordinates": [ 32.7010849, 25.1989569 ] } },
{ "type": "Feature", "properties": { "name": "سلسلة", "name:en": "Silsila", "railway": "station", "ele": null, "operator:type": null, "layer": null, "addr:full": null, "addr:city": null, "source": null, "name:ar": "سلسلة", "osm_id": 768077307, "osm_type": "nodes" }, "geometry": { "type": "Point", "coordinates": [ 32.95, 24.583333 ] } },
{ "type": "Feature", "properties": { "name": "التوفيقية البلد", "name:en": null, "railway": "station", "ele": null, "operator:type": null, "layer": null, "addr:full": null, "addr:city": null, "source": null, "name:ar": "التوفيقية البلد", "osm_id": 6487833444, "osm_type": "nodes" }, "geometry": { "type": "Point", "coordinates": [ 31.7039346, 31.3879611 ] } },
{ "type": "Feature", "properties": { "name": "كفر سعد", "name:en": null, "railway": "station", "ele": null, "operator:type": null, "layer": null, "addr:full": null, "addr:city": null, "source": null, "name:ar": "كفر سعد", "osm_id": 1041084565, "osm_type": "nodes" }, "geometry": { "type": "Point", "coordinates": [ 31.6889373, 31.355144 ] } },
{ "type": "Feature", "properties": { "name": "هشام بركات‎", "name:en": "Hesham Barakat", "railway": "station", "ele": null, "operator:type": null, "layer": null, "addr:full": null, "addr:city": null, "source": null, "name:ar": "هشام بركات‎", "osm_id": 9159388952, "osm_type": "nodes" }, "geometry": { "type": "Point", "coordinates": [ 31.3730901, 30.1309653 ] } },
{ "type": "Feature", "properties": { "name": "TB2 & TB3", "name:en": null, "railway": "station", "ele": null, "operator:type": null, "layer": null, "addr:full": null, "addr:city": null, "source": null, "name:ar": null, "osm_id": 7984340761, "osm_type": "nodes" }, "geometry": { "type": "Point", "coordinates": [ 31.3984162, 30.1121924 ] } },
{ "type": "Feature", "properties": { "name": "الهايكستب‎", "name:en": "El Haykestep", "railway": "station", "ele": null, "operator:type": null, "layer": null, "addr:full": null, "addr:city": null, "source": null, "name:ar": "الهايكستب‎", "osm_id": 9159388949, "osm_type": "nodes" }, "geometry": { "type": "Point", "coordinates": [ 31.4048488, 30.1438828 ] } },
{ "type": "Feature", "properties": { "name": "عمر بن الخطاب‎", "name:en": "Omar Ebn Elkhatab", "railway": "station", "ele": null, "operator:type": null, "layer": null, "addr:full": null, "addr:city": null, "source": null, "name:ar": "عمر بن الخطاب‎", "osm_id": 9159388950, "osm_type": "nodes" }, "geometry": { "type": "Point", "coordinates": [ 31.39448, 30.1404081 ] } },
{ "type": "Feature", "properties": { "name": "TB1", "name:en": null, "railway": "station", "ele": null, "operator:type": null, "layer": null, "addr:full": null, "addr:city": null, "source": null, "name:ar": null, "osm_id": 7984340772, "osm_type": "nodes" }, "geometry": { "type": "Point", "coordinates": [ 31.4032495, 30.1272785 ] } },
{ "type": "Feature", "properties": { "name": "قباء‎", "name:en": "Qubaa", "railway": "station", "ele": null, "operator:type": null, "layer": null, "addr:full": null, "addr:city": null, "source": null, "name:ar": "قباء‎", "osm_id": 9159388951, "osm_type": "nodes" }, "geometry": { "type": "Point", "coordinates": [ 31.3840616, 30.1347604 ] } },
{ "type": "Feature", "properties": { "name": "Car Park", "name:en": null, "railway": "station", "ele": null, "operator:type": null, "layer": null, "addr:full": null, "addr:city": null, "source": null, "name:ar": null, "osm_id": 7984340768, "osm_type": "nodes" }, "geometry": { "type": "Point", "coordinates": [ 31.4013746, 30.1164661 ] } },
{ "type": "Feature", "properties": { "name": "عدلى منصور", "name:en": "Adly Mansour", "railway": "station", "ele": null, "operator:type": null, "layer": null, "addr:full": null, "addr:city": null, "source": null, "name:ar": "عدلى منصور", "osm_id": 9159388948, "osm_type": "nodes" }, "geometry": { "type": "Point", "coordinates": [ 31.4215975, 30.1469543 ] } },
{ "type": "Feature", "properties": { "name": "كفر الحطبة", "name:en": null, "railway": "station", "ele": null, "operator:type": null, "layer": null, "addr:full": null, "addr:city": null, "source": null, "name:ar": "كفر الحطبة", "osm_id": 6487765599, "osm_type": "nodes" }, "geometry": { "type": "Point", "coordinates": [ 31.4844554, 31.1825099 ] } },
{ "type": "Feature", "properties": { "name": "محطة قطار جمصة", "name:en": null, "railway": "station", "ele": null, "operator:type": null, "layer": null, "addr:full": null, "addr:city": null, "source": null, "name:ar": "محطة قطار جمصة", "osm_id": 6487833442, "osm_type": "nodes" }, "geometry": { "type": "Point", "coordinates": [ 31.6221078, 31.2776842 ] } },
{ "type": "Feature", "properties": { "name": "السوالم", "name:en": null, "railway": "station", "ele": null, "operator:type": null, "layer": null, "addr:full": null, "addr:city": null, "source": null, "name:ar": "السوالم", "osm_id": 6487833443, "osm_type": "nodes" }, "geometry": { "type": "Point", "coordinates": [ 31.6425199, 31.3026818 ] } },
{ "type": "Feature", "properties": { "name": "محطة الجعافرة", "name:en": "Al Gaafra Station", "railway": "station", "ele": null, "operator:type": null, "layer": null, "addr:full": null, "addr:city": null, "source": null, "name:ar": "محطة الجعافرة", "osm_id": 2724801305, "osm_type": "nodes" }, "geometry": { "type": "Point", "coordinates": [ 32.9149535, 24.3247123 ] } },
{ "type": "Feature", "properties": { "name": null, "name:en": null, "railway": "station", "ele": null, "operator:type": null, "layer": null, "addr:full": null, "addr:city": null, "source": null, "name:ar": null, "osm_id": 10570283368, "osm_type": "nodes" }, "geometry": { "type": "Point", "coordinates": [ 31.1622756, 30.131317 ] } },
{ "type": "Feature", "properties": { "name": null, "name:en": null, "railway": "station", "ele": null, "operator:type": null, "layer": null, "addr:full": null, "addr:city": null, "source": null, "name:ar": null, "osm_id": 10570203390, "osm_type": "nodes" }, "geometry": { "type": "Point", "coordinates": [ 30.9929093, 30.1944856 ] } },
{ "type": "Feature", "properties": { "name": null, "name:en": null, "railway": "station", "ele": null, "operator:type": null, "layer": null, "addr:full": null, "addr:city": null, "source": null, "name:ar": null, "osm_id": 10568031086, "osm_type": "nodes" }, "geometry": { "type": "Point", "coordinates": [ 30.8346348, 30.3192905 ] } },
{ "type": "Feature", "properties": { "name": "طرا الأسمنت", "name:en": "Tora El-Asmant", "railway": "station", "ele": null, "operator:type": null, "layer": null, "addr:full": null, "addr:city": null, "source": null, "name:ar": "طرا الأسمنت", "osm_id": 316638605, "osm_type": "nodes" }, "geometry": { "type": "Point", "coordinates": [ 31.2876941, 29.9258484 ] } },
{ "type": "Feature", "properties": { "name": "طرة البلد", "name:en": "Tora El-Balad", "railway": "station", "ele": null, "operator:type": null, "layer": null, "addr:full": null, "addr:city": null, "source": null, "name:ar": "طرة البلد", "osm_id": 5349031096, "osm_type": "nodes" }, "geometry": { "type": "Point", "coordinates": [ 31.2735808, 29.9463299 ] } },
{ "type": "Feature", "properties": { "name": "جامعة القاهرة", "name:en": "Cairo University", "railway": "station", "ele": null, "operator:type": null, "layer": null, "addr:full": null, "addr:city": null, "source": null, "name:ar": "جامعة القاهرة", "osm_id": 9162042095, "osm_type": "nodes" }, "geometry": { "type": "Point", "coordinates": [ 31.2012032, 30.0259937 ] } },
{ "type": "Feature", "properties": { "name": "أبوكساح", "name:en": "Abuksah", "railway": "station", "ele": null, "operator:type": null, "layer": null, "addr:full": null, "addr:city": null, "source": null, "name:ar": "أبوكساح", "osm_id": 768556560, "osm_type": "nodes" }, "geometry": { "type": "Point", "coordinates": [ 30.716667, 29.4 ] } },
{ "type": "Feature", "properties": { "name": null, "name:en": null, "railway": "station", "ele": null, "operator:type": null, "layer": null, "addr:full": null, "addr:city": null, "source": null, "name:ar": null, "osm_id": 10559276733, "osm_type": "nodes" }, "geometry": { "type": "Point", "coordinates": [ 29.6765299, 30.9607805 ] } },
{ "type": "Feature", "properties": { "name": "زرقون", "name:en": "Zarqun", "railway": "station", "ele": null, "operator:type": null, "layer": null, "addr:full": null, "addr:city": null, "source": null, "name:ar": "زرقون", "osm_id": 768567186, "osm_type": "nodes" }, "geometry": { "type": "Point", "coordinates": [ 30.466667, 31.116667 ] } },
{ "type": "Feature", "properties": { "name": "شرنوب", "name:en": "Sharnub", "railway": "station", "ele": null, "operator:type": null, "layer": null, "addr:full": null, "addr:city": null, "source": null, "name:ar": "شرنوب", "osm_id": 768601634, "osm_type": "nodes" }, "geometry": { "type": "Point", "coordinates": [ 30.583333, 31.016667 ] } },
{ "type": "Feature", "properties": { "name": null, "name:en": null, "railway": "station", "ele": null, "operator:type": null, "layer": null, "addr:full": null, "addr:city": null, "source": null, "name:ar": null, "osm_id": 1038549410, "osm_type": "nodes" }, "geometry": { "type": "Point", "coordinates": [ 30.7474775, 31.0906301 ] } },
{ "type": "Feature", "properties": { "name": "محطة جبل الجفرا", "name:en": "Gebel al Gafra Station", "railway": "station", "ele": null, "operator:type": null, "layer": null, "addr:full": null, "addr:city": null, "source": null, "name:ar": "محطة جبل الجفرا", "osm_id": 768766271, "osm_type": "nodes" }, "geometry": { "type": "Point", "coordinates": [ 31.966667, 30.15 ] } },
{ "type": "Feature", "properties": { "name": "القنطرة", "name:en": "Al Qantara", "railway": "station", "ele": null, "operator:type": null, "layer": null, "addr:full": null, "addr:city": null, "source": null, "name:ar": "القنطرة", "osm_id": 1023702822, "osm_type": "nodes" }, "geometry": { "type": "Point", "coordinates": [ 32.3139299, 30.8573097 ] } },
{ "type": "Feature", "properties": { "name": "منيل شيحا", "name:en": "Manial Shiha", "railway": "station", "ele": null, "operator:type": null, "layer": null, "addr:full": null, "addr:city": null, "source": null, "name:ar": "منيل شيحا", "osm_id": 1125556316, "osm_type": "nodes" }, "geometry": { "type": "Point", "coordinates": [ 31.2381004, 29.9518006 ] } },
{ "type": "Feature", "properties": { "name": "محطة تل الكبير", "name:en": "Al Tall al Kebir", "railway": "station", "ele": null, "operator:type": null, "layer": null, "addr:full": null, "addr:city": null, "source": null, "name:ar": "محطة تل الكبير", "osm_id": 1028067604, "osm_type": "nodes" }, "geometry": { "type": "Point", "coordinates": [ 31.7835625, 30.5628778 ] } },
{ "type": "Feature", "properties": { "name": "محطة محي الدين", "name:en": "Mahattat Muhyi al Din", "railway": "station", "ele": null, "operator:type": null, "layer": null, "addr:full": null, "addr:city": null, "source": null, "name:ar": "محطة محي الدين", "osm_id": 768549946, "osm_type": "nodes" }, "geometry": { "type": "Point", "coordinates": [ 31.266667, 30.55 ] } },
{ "type": "Feature", "properties": { "name": "محطة الصفين", "name:en": "Al Saffein Station", "railway": "station", "ele": null, "operator:type": null, "layer": null, "addr:full": null, "addr:city": null, "source": null, "name:ar": "محطة الصفين", "osm_id": 768565555, "osm_type": "nodes" }, "geometry": { "type": "Point", "coordinates": [ 31.266667, 30.6 ] } },
{ "type": "Feature", "properties": { "name": "عدلى منصور", "name:en": "Adly Mansour", "railway": "station", "ele": null, "operator:type": null, "layer": null, "addr:full": null, "addr:city": null, "source": null, "name:ar": "عدلى منصور", "osm_id": 9885252635, "osm_type": "nodes" }, "geometry": { "type": "Point", "coordinates": [ 31.4213088, 30.146382 ] } },
{ "type": "Feature", "properties": { "name": "المزغونة", "name:en": "El-Mazghona", "railway": "station", "ele": null, "operator:type": null, "layer": null, "addr:full": null, "addr:city": null, "source": null, "name:ar": "المزغونة", "osm_id": 316709022, "osm_type": "nodes" }, "geometry": { "type": "Point", "coordinates": [ 31.2713823, 29.8089181 ] } },
{ "type": "Feature", "properties": { "name": null, "name:en": null, "railway": "station", "ele": null, "operator:type": null, "layer": null, "addr:full": null, "addr:city": null, "source": null, "name:ar": null, "osm_id": 10654333858, "osm_type": "nodes" }, "geometry": { "type": "Point", "coordinates": [ 32.2970189, 30.5103157 ] } },
{ "type": "Feature", "properties": { "name": null, "name:en": null, "railway": "station", "ele": null, "operator:type": null, "layer": null, "addr:full": null, "addr:city": null, "source": null, "name:ar": null, "osm_id": 10570741969, "osm_type": "nodes" }, "geometry": { "type": "Point", "coordinates": [ 30.8091742, 30.6902696 ] } },
{ "type": "Feature", "properties": { "name": "جامعة حلوان", "name:en": "Helwan University", "railway": "station", "ele": null, "operator:type": null, "layer": null, "addr:full": null, "addr:city": null, "source": null, "name:ar": "جامعة حلوان", "osm_id": 316637586, "osm_type": "nodes" }, "geometry": { "type": "Point", "coordinates": [ 31.320377, 29.8690253 ] } },
{ "type": "Feature", "properties": { "name": "مترو حدائق المعادى", "name:en": "Maadi Gardens", "railway": "station", "ele": null, "operator:type": null, "layer": null, "addr:full": null, "addr:city": null, "source": null, "name:ar": "مترو حدائق المعادى", "osm_id": 2110350259, "osm_type": "nodes" }, "geometry": { "type": "Point", "coordinates": [ 31.2506712, 29.9701006 ] } },
{ "type": "Feature", "properties": { "name": "محطة أبو صوير", "name:en": "Mahattat Abu Suwayr", "railway": "station", "ele": null, "operator:type": null, "layer": null, "addr:full": null, "addr:city": null, "source": null, "name:ar": "محطة أبو صوير", "osm_id": 1087859073, "osm_type": "nodes" }, "geometry": { "type": "Point", "coordinates": [ 32.1164724, 30.5623104 ] } },
{ "type": "Feature", "properties": { "name": "محطة معسكر الإسماعيلية", "name:en": "Mahattat Al-Muaskar", "railway": "station", "ele": null, "operator:type": null, "layer": null, "addr:full": null, "addr:city": null, "source": null, "name:ar": "محطة معسكر الإسماعيلية", "osm_id": 1126061203, "osm_type": "nodes" }, "geometry": { "type": "Point", "coordinates": [ 32.2531709, 30.5838358 ] } },
{ "type": "Feature", "properties": { "name": "كفر البطيخ", "name:en": null, "railway": "station", "ele": null, "operator:type": null, "layer": null, "addr:full": null, "addr:city": null, "source": null, "name:ar": "كفر البطيخ", "osm_id": 6487833445, "osm_type": "nodes" }, "geometry": { "type": "Point", "coordinates": [ 31.7385161, 31.4054518 ] } },
{ "type": "Feature", "properties": { "name": null, "name:en": null, "railway": "station", "ele": null, "operator:type": null, "layer": null, "addr:full": null, "addr:city": null, "source": null, "name:ar": null, "osm_id": 5639657927, "osm_type": "nodes" }, "geometry": { "type": "Point", "coordinates": [ 32.8821671, 24.1760069 ] } },
{ "type": "Feature", "properties": { "name": null, "name:en": null, "railway": "station", "ele": null, "operator:type": null, "layer": null, "addr:full": null, "addr:city": null, "source": null, "name:ar": null, "osm_id": 4493010837, "osm_type": "nodes" }, "geometry": { "type": "Point", "coordinates": [ 32.8759276, 24.2362892 ] } },
{ "type": "Feature", "properties": { "name": null, "name:en": null, "railway": "station", "ele": null, "operator:type": null, "layer": null, "addr:full": null, "addr:city": null, "source": null, "name:ar": null, "osm_id": 997582384, "osm_type": "nodes" }, "geometry": { "type": "Point", "coordinates": [ 32.5558042, 25.5983999 ] } },
{ "type": "Feature", "properties": { "name": "البغدادي", "name:en": "Al Bughdadi", "railway": "station", "ele": null, "operator:type": null, "layer": null, "addr:full": null, "addr:city": null, "source": null, "name:ar": "البغدادي", "osm_id": 1095112715, "osm_type": "nodes" }, "geometry": { "type": "Point", "coordinates": [ 32.6027761, 25.6363502 ] } },
{ "type": "Feature", "properties": { "name": "سلامون القماش", "name:en": "Salamon Al-Qomash", "railway": "station", "ele": null, "operator:type": null, "layer": null, "addr:full": null, "addr:city": null, "source": null, "name:ar": "سلامون القماش", "osm_id": 1040800284, "osm_type": "nodes" }, "geometry": { "type": "Point", "coordinates": [ 31.461111, 31.0669471 ] } },
{ "type": "Feature", "properties": { "name": null, "name:en": null, "railway": "station", "ele": null, "operator:type": null, "layer": null, "addr:full": null, "addr:city": null, "source": null, "name:ar": null, "osm_id": 4492770062, "osm_type": "nodes" }, "geometry": { "type": "Point", "coordinates": [ 32.8918273, 24.8672212 ] } },
{ "type": "Feature", "properties": { "name": "محطة السراج", "name:en": "Mahattat al Siraj", "railway": "station", "ele": null, "operator:type": null, "layer": null, "addr:full": null, "addr:city": null, "source": null, "name:ar": "محطة السراج", "osm_id": 4492770061, "osm_type": "nodes" }, "geometry": { "type": "Point", "coordinates": [ 32.8914753, 24.8560258 ] } },
{ "type": "Feature", "properties": { "name": "دكرنس", "name:en": "Dekernes", "railway": "station", "ele": null, "operator:type": null, "layer": null, "addr:full": null, "addr:city": null, "source": null, "name:ar": "دكرنس", "osm_id": 1027173234, "osm_type": "nodes" }, "geometry": { "type": "Point", "coordinates": [ 31.5990453, 31.0783785 ] } },
{ "type": "Feature", "properties": { "name": "ميت ضافر", "name:en": "Meet Dafer", "railway": "station", "ele": null, "operator:type": null, "layer": null, "addr:full": null, "addr:city": null, "source": null, "name:ar": "ميت ضافر", "osm_id": 1040800195, "osm_type": "nodes" }, "geometry": { "type": "Point", "coordinates": [ 31.5452989, 31.0787888 ] } },
{ "type": "Feature", "properties": { "name": "المنزلة", "name:en": "Al-Manzala", "railway": "station", "ele": null, "operator:type": null, "layer": null, "addr:full": null, "addr:city": null, "source": null, "name:ar": "المنزلة", "osm_id": 1040806712, "osm_type": "nodes" }, "geometry": { "type": "Point", "coordinates": [ 31.932717, 31.1490267 ] } },
{ "type": "Feature", "properties": { "name": null, "name:en": null, "railway": "station", "ele": null, "operator:type": null, "layer": null, "addr:full": null, "addr:city": null, "source": null, "name:ar": null, "osm_id": 4492770060, "osm_type": "nodes" }, "geometry": { "type": "Point", "coordinates": [ 32.9113056, 24.815687 ] } },
{ "type": "Feature", "properties": { "name": "حدائق حلوان", "name:en": "Hadayeq Helwan", "railway": "station", "ele": null, "operator:type": null, "layer": null, "addr:full": null, "addr:city": null, "source": null, "name:ar": "حدائق حلوان", "osm_id": 5344953908, "osm_type": "nodes" }, "geometry": { "type": "Point", "coordinates": [ 31.3040668, 29.8971871 ] } },
{ "type": "Feature", "properties": { "name": "دراو", "name:en": "Draw", "railway": "station", "ele": null, "operator:type": null, "layer": null, "addr:full": null, "addr:city": null, "source": null, "name:ar": "دراو", "osm_id": 2724801316, "osm_type": "nodes" }, "geometry": { "type": "Point", "coordinates": [ 32.9273867, 24.4053453 ] } },
{ "type": "Feature", "properties": { "name": "نجع حمادي", "name:en": "Naga Hammadi", "railway": "station", "ele": null, "operator:type": null, "layer": null, "addr:full": null, "addr:city": null, "source": null, "name:ar": "نجع حمادي", "osm_id": 520512280, "osm_type": "nodes" }, "geometry": { "type": "Point", "coordinates": [ 32.24105, 26.0432778 ] } },
{ "type": "Feature", "properties": { "name": "برمبال القديمة", "name:en": "Birimbal Al-Qadima", "railway": "station", "ele": null, "operator:type": null, "layer": null, "addr:full": null, "addr:city": null, "source": null, "name:ar": "برمبال القديمة", "osm_id": 1040806645, "osm_type": "nodes" }, "geometry": { "type": "Point", "coordinates": [ 31.7432308, 31.1576218 ] } },
{ "type": "Feature", "properties": { "name": null, "name:en": null, "railway": "station", "ele": null, "operator:type": null, "layer": null, "addr:full": null, "addr:city": null, "source": null, "name:ar": null, "osm_id": 1049926367, "osm_type": "nodes" }, "geometry": { "type": "Point", "coordinates": [ 32.8793114, 25.0486143 ] } },
{ "type": "Feature", "properties": { "name": "إسنا", "name:en": "Isna", "railway": "station", "ele": null, "operator:type": null, "layer": null, "addr:full": null, "addr:city": null, "source": null, "name:ar": "إسنا", "osm_id": 1049859125, "osm_type": "nodes" }, "geometry": { "type": "Point", "coordinates": [ 32.5708378, 25.3100294 ] } },
{ "type": "Feature", "properties": { "name": null, "name:en": null, "railway": "station", "ele": null, "operator:type": null, "layer": null, "addr:full": null, "addr:city": null, "source": null, "name:ar": null, "osm_id": 4492770063, "osm_type": "nodes" }, "geometry": { "type": "Point", "coordinates": [ 32.8799382, 24.904038 ] } },
{ "type": "Feature", "properties": { "name": "المحاميد", "name:en": "Al-Mahamid", "railway": "station", "ele": null, "operator:type": null, "layer": null, "addr:full": null, "addr:city": null, "source": null, "name:ar": "المحاميد", "osm_id": 1049926156, "osm_type": "nodes" }, "geometry": { "type": "Point", "coordinates": [ 32.7781989, 25.1340812 ] } },
{ "type": "Feature", "properties": { "name": "ميت سلسيل", "name:en": "Meet Selseel", "railway": "station", "ele": null, "operator:type": null, "layer": null, "addr:full": null, "addr:city": null, "source": null, "name:ar": "ميت سلسيل", "osm_id": 1090852593, "osm_type": "nodes" }, "geometry": { "type": "Point", "coordinates": [ 31.805552, 31.1633816 ] } },
{ "type": "Feature", "properties": { "name": "محطة سندوب", "name:en": "Sandoub", "railway": "station", "ele": null, "operator:type": null, "layer": null, "addr:full": null, "addr:city": null, "source": null, "name:ar": "محطة سندوب", "osm_id": 2684271787, "osm_type": "nodes" }, "geometry": { "type": "Point", "coordinates": [ 31.39332, 31.0158222 ] } },
{ "type": "Feature", "properties": { "name": "الجماليه", "name:en": "Al-Gamaleya", "railway": "station", "ele": null, "operator:type": null, "layer": null, "addr:full": null, "addr:city": null, "source": null, "name:ar": "الجماليه", "osm_id": 1040806727, "osm_type": "nodes" }, "geometry": { "type": "Point", "coordinates": [ 31.86935, 31.1727669 ] } },
{ "type": "Feature", "properties": { "name": "ميت الخولى", "name:en": "Meet Al-Khouly", "railway": "station", "ele": null, "operator:type": null, "layer": null, "addr:full": null, "addr:city": null, "source": null, "name:ar": "ميت الخولى", "osm_id": 1040806676, "osm_type": "nodes" }, "geometry": { "type": "Point", "coordinates": [ 31.6526552, 31.1142201 ] } },
{ "type": "Feature", "properties": { "name": "الطويلة", "name:en": null, "railway": "station", "ele": null, "operator:type": null, "layer": null, "addr:full": null, "addr:city": null, "source": null, "name:ar": "الطويلة", "osm_id": 6487765595, "osm_type": "nodes" }, "geometry": { "type": "Point", "coordinates": [ 31.418748, 31.1214834 ] } },
{ "type": "Feature", "properties": { "name": "كفر سعد البلد", "name:en": null, "railway": "station", "ele": null, "operator:type": null, "layer": null, "addr:full": null, "addr:city": null, "source": null, "name:ar": "كفر سعد البلد", "osm_id": 1041084561, "osm_type": "nodes" }, "geometry": { "type": "Point", "coordinates": [ 31.6563685, 31.3195897 ] } },
{ "type": "Feature", "properties": { "name": "الحوامدية", "name:en": "Al-Hawamdiwa", "railway": "station", "ele": null, "operator:type": null, "layer": null, "addr:full": null, "addr:city": null, "source": null, "name:ar": "الحوامدية", "osm_id": 316708494, "osm_type": "nodes" }, "geometry": { "type": "Point", "coordinates": [ 31.2703737, 29.8943151 ] } },
{ "type": "Feature", "properties": { "name": "المعصرة", "name:en": "Al-Maasara", "railway": "station", "ele": null, "operator:type": null, "layer": null, "addr:full": null, "addr:city": null, "source": null, "name:ar": "المعصرة", "osm_id": 5348846068, "osm_type": "nodes" }, "geometry": { "type": "Point", "coordinates": [ 31.2997264, 29.9061043 ] } },
{ "type": "Feature", "properties": { "name": "وادي حوف", "name:en": "Wadi Hof", "railway": "station", "ele": null, "operator:type": null, "layer": null, "addr:full": null, "addr:city": null, "source": null, "name:ar": "وادي حوف", "osm_id": 5344953909, "osm_type": "nodes" }, "geometry": { "type": "Point", "coordinates": [ 31.3134042, 29.8794379 ] } },
{ "type": "Feature", "properties": { "name": "بطرة", "name:en": null, "railway": "station", "ele": null, "operator:type": null, "layer": null, "addr:full": null, "addr:city": null, "source": null, "name:ar": "بطرة", "osm_id": 6487765597, "osm_type": "nodes" }, "geometry": { "type": "Point", "coordinates": [ 31.4420088, 31.1662726 ] } },
{ "type": "Feature", "properties": { "name": "شربين", "name:en": "Shirbin", "railway": "station", "ele": null, "operator:type": null, "layer": null, "addr:full": null, "addr:city": null, "source": null, "name:ar": "شربين", "osm_id": 1035397813, "osm_type": "nodes" }, "geometry": { "type": "Point", "coordinates": [ 31.5265923, 31.1915543 ] } },
{ "type": "Feature", "properties": { "name": "الصبرية", "name:en": null, "railway": "station", "ele": null, "operator:type": null, "layer": null, "addr:full": null, "addr:city": null, "source": null, "name:ar": "الصبرية", "osm_id": 6487833440, "osm_type": "nodes" }, "geometry": { "type": "Point", "coordinates": [ 31.5779518, 31.2239137 ] } },
{ "type": "Feature", "properties": { "name": "السعادوة", "name:en": null, "railway": "station", "ele": null, "operator:type": null, "layer": null, "addr:full": null, "addr:city": null, "source": null, "name:ar": "السعادوة", "osm_id": 6487833439, "osm_type": "nodes" }, "geometry": { "type": "Point", "coordinates": [ 31.5516875, 31.2078413 ] } },
{ "type": "Feature", "properties": { "name": "البدراشين", "name:en": "Al-Badrasheen", "railway": "station", "ele": null, "operator:type": null, "layer": null, "addr:full": null, "addr:city": null, "source": null, "name:ar": "البدراشين", "osm_id": 5784657560, "osm_type": "nodes" }, "geometry": { "type": "Point", "coordinates": [ 31.2774423, 29.8536707 ] } },
{ "type": "Feature", "properties": { "name": "بدر", "name:en": "Badr", "railway": "station", "ele": null, "operator:type": null, "layer": null, "addr:full": null, "addr:city": null, "source": null, "name:ar": null, "osm_id": 9885252627, "osm_type": "nodes" }, "geometry": { "type": "Point", "coordinates": [ 31.7160192, 30.1751897 ] } },
{ "type": "Feature", "properties": { "name": null, "name:en": null, "railway": "station", "ele": null, "operator:type": null, "layer": null, "addr:full": null, "addr:city": null, "source": null, "name:ar": null, "osm_id": 5316869732, "osm_type": "nodes" }, "geometry": { "type": "Point", "coordinates": [ 32.9281089, 24.389191 ] } },
{ "type": "Feature", "properties": { "name": null, "name:en": null, "railway": "station", "ele": null, "operator:type": null, "layer": null, "addr:full": null, "addr:city": null, "source": null, "name:ar": null, "osm_id": 3759916532, "osm_type": "nodes" }, "geometry": { "type": "Point", "coordinates": [ 32.9270653, 24.3670398 ] } },
{ "type": "Feature", "properties": { "name": null, "name:en": "Edfu", "railway": "station", "ele": null, "operator:type": null, "layer": null, "addr:full": null, "addr:city": null, "source": null, "name:ar": null, "osm_id": 4621674689, "osm_type": "nodes" }, "geometry": { "type": "Point", "coordinates": [ 32.8893036, 24.9902069 ] } },
{ "type": "Feature", "properties": { "name": null, "name:en": null, "railway": "station", "ele": null, "operator:type": null, "layer": null, "addr:full": null, "addr:city": null, "source": null, "name:ar": null, "osm_id": 1049926096, "osm_type": "nodes" }, "geometry": { "type": "Point", "coordinates": [ 32.8842132, 25.0161454 ] } },
{ "type": "Feature", "properties": { "name": "محطة سكة حديد المطرية", "name:en": "El Matareya", "railway": "station", "ele": null, "operator:type": null, "layer": null, "addr:full": null, "addr:city": null, "source": null, "name:ar": null, "osm_id": 1150599673, "osm_type": "nodes" }, "geometry": { "type": "Point", "coordinates": [ 32.0350754, 31.1766865 ] } },
{ "type": "Feature", "properties": { "name": null, "name:en": null, "railway": "station", "ele": null, "operator:type": null, "layer": null, "addr:full": null, "addr:city": null, "source": null, "name:ar": null, "osm_id": 10685323980, "osm_type": "nodes" }, "geometry": { "type": "Point", "coordinates": [ 30.915857, 29.3412366 ] } },
{ "type": "Feature", "properties": { "name": "محطة قطار الصالحية", "name:en": "Salehia", "railway": "station", "ele": null, "operator:type": null, "layer": null, "addr:full": null, "addr:city": null, "source": null, "name:ar": null, "osm_id": 10584291820, "osm_type": "nodes" }, "geometry": { "type": "Point", "coordinates": [ 31.9984645, 30.7790381 ] } },
{ "type": "Feature", "properties": { "name": null, "name:en": null, "railway": "station", "ele": null, "operator:type": null, "layer": null, "addr:full": null, "addr:city": null, "source": null, "name:ar": null, "osm_id": 10568095900, "osm_type": "nodes" }, "geometry": { "type": "Point", "coordinates": [ 30.9533794, 30.2309749 ] } },
{ "type": "Feature", "properties": { "name": "منوف", "name:en": "Menouf", "railway": "station", "ele": null, "operator:type": null, "layer": null, "addr:full": null, "addr:city": null, "source": null, "name:ar": "منوف", "osm_id": 5741713896, "osm_type": "nodes" }, "geometry": { "type": "Point", "coordinates": [ 30.9388785, 30.4626909 ] } },
{ "type": "Feature", "properties": { "name": null, "name:en": null, "railway": "station", "ele": null, "operator:type": null, "layer": null, "addr:full": null, "addr:city": null, "source": null, "name:ar": null, "osm_id": 10576673939, "osm_type": "nodes" }, "geometry": { "type": "Point", "coordinates": [ 30.935122, 30.3670273 ] } },
{ "type": "Feature", "properties": { "name": "محطة أبو سلطان", "name:en": "Mahattat Abu Sultan", "railway": "station", "ele": null, "operator:type": null, "layer": null, "addr:full": null, "addr:city": null, "source": null, "name:ar": "محطة أبو سلطان", "osm_id": 1521675663, "osm_type": "nodes" }, "geometry": { "type": "Point", "coordinates": [ 32.312342, 30.4123671 ] } },
{ "type": "Feature", "properties": { "name": "الفردان", "name:en": "Al Firdan", "railway": "station", "ele": null, "operator:type": null, "layer": null, "addr:full": null, "addr:city": null, "source": null, "name:ar": "الفردان", "osm_id": 768792815, "osm_type": "nodes" }, "geometry": { "type": "Point", "coordinates": [ 32.3354586, 30.6866472 ] } },
{ "type": "Feature", "properties": { "name": "Port Said", "name:en": null, "railway": "station", "ele": null, "operator:type": null, "layer": null, "addr:full": null, "addr:city": null, "source": null, "name:ar": null, "osm_id": 10632775799, "osm_type": "nodes" }, "geometry": { "type": "Point", "coordinates": [ 32.3005799, 31.259825 ] } },
{ "type": "Feature", "properties": { "name": null, "name:en": null, "railway": "station", "ele": null, "operator:type": null, "layer": null, "addr:full": null, "addr:city": null, "source": null, "name:ar": null, "osm_id": 10576658161, "osm_type": "nodes" }, "geometry": { "type": "Point", "coordinates": [ 30.9227556, 30.4191988 ] } },
{ "type": "Feature", "properties": { "name": null, "name:en": null, "railway": "station", "ele": null, "operator:type": null, "layer": null, "addr:full": null, "addr:city": null, "source": null, "name:ar": null, "osm_id": 10655486425, "osm_type": "nodes" }, "geometry": { "type": "Point", "coordinates": [ 32.3192598, 30.4781755 ] } },
{ "type": "Feature", "properties": { "name": "محطة خمسة", "name:en": "Khamsa Station", "railway": "station", "ele": null, "operator:type": null, "layer": null, "addr:full": null, "addr:city": null, "source": null, "name:ar": "محطة خمسة", "osm_id": 768581285, "osm_type": "nodes" }, "geometry": { "type": "Point", "coordinates": [ 32.383333, 30.416667 ] } },
{ "type": "Feature", "properties": { "name": "النزهة‎", "name:en": "El Nozha", "railway": "station", "ele": null, "operator:type": null, "layer": null, "addr:full": null, "addr:city": null, "source": null, "name:ar": "النزهة‎", "osm_id": 9159388953, "osm_type": "nodes" }, "geometry": { "type": "Point", "coordinates": [ 31.3605199, 30.1281171 ] } },
{ "type": "Feature", "properties": { "name": "محطة إنشاص الرمل", "name:en": "Inshas al Raml", "railway": "station", "ele": null, "operator:type": null, "layer": null, "addr:full": null, "addr:city": null, "source": null, "name:ar": "محطة إنشاص الرمل", "osm_id": 768526257, "osm_type": "nodes" }, "geometry": { "type": "Point", "coordinates": [ 31.4547718, 30.3798071 ] } },
{ "type": "Feature", "properties": { "name": null, "name:en": null, "railway": "station", "ele": null, "operator:type": null, "layer": null, "addr:full": null, "addr:city": null, "source": null, "name:ar": null, "osm_id": 10673525315, "osm_type": "nodes" }, "geometry": { "type": "Point", "coordinates": [ 31.6779215, 30.5363635 ] } },
{ "type": "Feature", "properties": { "name": "محطة أبو أكدة", "name:en": "Abu Akda Station", "railway": "station", "ele": null, "operator:type": null, "layer": null, "addr:full": null, "addr:city": null, "source": null, "name:ar": "محطة أبو أكدة", "osm_id": 768592811, "osm_type": "nodes" }, "geometry": { "type": "Point", "coordinates": [ 31.5750833, 30.5725445 ] } },
{ "type": "Feature", "properties": { "name": "الزقازيق", "name:en": "Al-Zaqaziq", "railway": "station", "ele": null, "operator:type": null, "layer": null, "addr:full": null, "addr:city": null, "source": null, "name:ar": "الزقازيق", "osm_id": 1022196175, "osm_type": "nodes" }, "geometry": { "type": "Point", "coordinates": [ 31.5020111, 30.5822027 ] } },
{ "type": "Feature", "properties": { "name": "سعد باشا زغلول", "name:en": "Sad Pasha Zaghlul", "railway": "station", "ele": null, "operator:type": null, "layer": null, "addr:full": null, "addr:city": null, "source": null, "name:ar": "سعد باشا زغلول", "osm_id": 768565564, "osm_type": "nodes" }, "geometry": { "type": "Point", "coordinates": [ 31.25, 30.633333 ] } },
{ "type": "Feature", "properties": { "name": "محطة المطاعنة", "name:en": "Al Matana Station", "railway": "station", "ele": null, "operator:type": null, "layer": null, "addr:full": null, "addr:city": null, "source": null, "name:ar": "محطة المطاعنة", "osm_id": 768738154, "osm_type": "nodes" }, "geometry": { "type": "Point", "coordinates": [ 32.5666924, 25.3833101 ] } },
{ "type": "Feature", "properties": { "name": "سمادون", "name:en": "Samadon", "railway": "station", "ele": null, "operator:type": null, "layer": null, "addr:full": null, "addr:city": null, "source": null, "name:ar": "سمادون", "osm_id": 1039310348, "osm_type": "nodes" }, "geometry": { "type": "Point", "coordinates": [ 30.9577717, 30.3338909 ] } },
{ "type": "Feature", "properties": { "name": null, "name:en": null, "railway": "station", "ele": null, "operator:type": null, "layer": null, "addr:full": null, "addr:city": null, "source": null, "name:ar": null, "osm_id": 10576295383, "osm_type": "nodes" }, "geometry": { "type": "Point", "coordinates": [ 30.9728916, 30.4787176 ] } },
{ "type": "Feature", "properties": { "name": "أشمون", "name:en": "Ashmoun", "railway": "station", "ele": null, "operator:type": null, "layer": null, "addr:full": null, "addr:city": null, "source": null, "name:ar": "أشمون", "osm_id": 1039313722, "osm_type": "nodes" }, "geometry": { "type": "Point", "coordinates": [ 30.9794024, 30.2988041 ] } },
{ "type": "Feature", "properties": { "name": "الملك الصالح", "name:en": "Al-Malek Al-Saleh", "railway": "station", "ele": null, "operator:type": null, "layer": null, "addr:full": null, "addr:city": null, "source": null, "name:ar": "الملك الصالح", "osm_id": 5349031092, "osm_type": "nodes" }, "geometry": { "type": "Point", "coordinates": [ 31.2309632, 30.0168801 ] } },
{ "type": "Feature", "properties": { "name": "محطة مترو ألف مسكن", "name:en": "Alf Maskan subway station", "railway": "station", "ele": null, "operator:type": null, "layer": null, "addr:full": null, "addr:city": null, "source": null, "name:ar": "مترو ألف مسكن", "osm_id": 7153613350, "osm_type": "nodes" }, "geometry": { "type": "Point", "coordinates": [ 31.3398266, 30.1180729 ] } },
{ "type": "Feature", "properties": { "name": "المطرية", "name:en": "El-Matareyya", "railway": "station", "ele": null, "operator:type": null, "layer": null, "addr:full": null, "addr:city": null, "source": null, "name:ar": "المطرية", "osm_id": 5349031070, "osm_type": "nodes" }, "geometry": { "type": "Point", "coordinates": [ 31.3139749, 30.1213801 ] } },
{ "type": "Feature", "properties": { "name": "سدس", "name:en": "Sads", "railway": "station", "ele": null, "operator:type": null, "layer": null, "addr:full": null, "addr:city": null, "source": null, "name:ar": "سدس", "osm_id": 768587159, "osm_type": "nodes" }, "geometry": { "type": "Point", "coordinates": [ 30.95, 28.9 ] } },
{ "type": "Feature", "properties": { "name": "الفشن", "name:en": "Fashn", "railway": "station", "ele": null, "operator:type": null, "layer": null, "addr:full": null, "addr:city": null, "source": null, "name:ar": "الفشن", "osm_id": 520515100, "osm_type": "nodes" }, "geometry": { "type": "Point", "coordinates": [ 30.9037843, 28.8232028 ] } },
{ "type": "Feature", "properties": { "name": "الفنت", "name:en": null, "railway": "station", "ele": null, "operator:type": null, "layer": null, "addr:full": null, "addr:city": null, "source": null, "name:ar": "الفنت", "osm_id": 2718667236, "osm_type": "nodes" }, "geometry": { "type": "Point", "coordinates": [ 30.868204, 28.7480324 ] } },
{ "type": "Feature", "properties": { "name": "شبرا الخيمة", "name:en": "Shobra Al-Kheima", "railway": "station", "ele": null, "operator:type": null, "layer": null, "addr:full": null, "addr:city": null, "source": null, "name:ar": "شبرا الخيمة", "osm_id": 272197931, "osm_type": "nodes" }, "geometry": { "type": "Point", "coordinates": [ 31.2446088, 30.1224837 ] } },
{ "type": "Feature", "properties": { "name": "الخلفاوي", "name:en": "Al-Khalafawy", "railway": "station", "ele": null, "operator:type": null, "layer": null, "addr:full": null, "addr:city": null, "source": null, "name:ar": "الخلفاوي", "osm_id": 2181318225, "osm_type": "nodes" }, "geometry": { "type": "Point", "coordinates": [ 31.2454368, 30.0977898 ] } },
{ "type": "Feature", "properties": { "name": "كلية الزراعة", "name:en": "Koliet El-Zeraa", "railway": "station", "ele": null, "operator:type": null, "layer": null, "addr:full": null, "addr:city": null, "source": null, "name:ar": "كلية الزراعة", "osm_id": 9164359294, "osm_type": "nodes" }, "geometry": { "type": "Point", "coordinates": [ 31.2487433, 30.1137638 ] } },
{ "type": "Feature", "properties": { "name": "شبرا الخيمة", "name:en": "Shobra Al-Kheima", "railway": "station", "ele": null, "operator:type": null, "layer": null, "addr:full": null, "addr:city": null, "source": null, "name:ar": "شبرا الخيمة", "osm_id": 9164359293, "osm_type": "nodes" }, "geometry": { "type": "Point", "coordinates": [ 31.2434932, 30.1240927 ] } },
{ "type": "Feature", "properties": { "name": "المظلات", "name:en": "Al-Mezallat", "railway": "station", "ele": null, "operator:type": null, "layer": null, "addr:full": null, "addr:city": null, "source": null, "name:ar": "المظلات", "osm_id": 316635179, "osm_type": "nodes" }, "geometry": { "type": "Point", "coordinates": [ 31.2461248, 30.1040913 ] } },
{ "type": "Feature", "properties": { "name": "حلمية الزيتون", "name:en": "Helmeyet Al-Zaitoun", "railway": "station", "ele": null, "operator:type": null, "layer": null, "addr:full": null, "addr:city": null, "source": null, "name:ar": "حلمية الزيتون", "osm_id": 316643091, "osm_type": "nodes" }, "geometry": { "type": "Point", "coordinates": [ 31.3139, 30.1143455 ] } },
{ "type": "Feature", "properties": { "name": "محطة هارون الرشيد", "name:en": null, "railway": "station", "ele": "2", "operator:type": null, "layer": null, "addr:full": null, "addr:city": null, "source": null, "name:ar": null, "osm_id": 8558269741, "osm_type": "nodes" }, "geometry": { "type": "Point", "coordinates": [ 31.328358, 30.0965987 ] } },
{ "type": "Feature", "properties": { "name": "الاهرام", "name:en": "Al Ahram", "railway": "station", "ele": null, "operator:type": null, "layer": null, "addr:full": null, "addr:city": null, "source": null, "name:ar": "الاهرام", "osm_id": 5194348148, "osm_type": "nodes" }, "geometry": { "type": "Point", "coordinates": [ 31.3264965, 30.0913176 ] } },
{ "type": "Feature", "properties": { "name": "حدائق الزيتون", "name:en": "Hadayeq Al-Zaitoun", "railway": "station", "ele": null, "operator:type": null, "layer": null, "addr:full": null, "addr:city": null, "source": null, "name:ar": "حدائق الزيتون", "osm_id": 5349031073, "osm_type": "nodes" }, "geometry": { "type": "Point", "coordinates": [ 31.3099368, 30.1051989 ] } },
{ "type": "Feature", "properties": { "name": "ميدان هليوبوليس", "name:en": "Heliopolis", "railway": "station", "ele": null, "operator:type": null, "layer": null, "addr:full": null, "addr:city": null, "source": null, "name:ar": "ميدان هليوبوليس", "osm_id": 7153613353, "osm_type": "nodes" }, "geometry": { "type": "Point", "coordinates": [ 31.3381815, 30.1079599 ] } },
{ "type": "Feature", "properties": { "name": null, "name:en": null, "railway": "station", "ele": null, "operator:type": null, "layer": null, "addr:full": null, "addr:city": null, "source": null, "name:ar": null, "osm_id": 10581752575, "osm_type": "nodes" }, "geometry": { "type": "Point", "coordinates": [ 31.3887005, 30.3481353 ] } },
{ "type": "Feature", "properties": { "name": "المرج", "name:en": "Al Marj", "railway": "station", "ele": null, "operator:type": null, "layer": null, "addr:full": null, "addr:city": null, "source": null, "name:ar": "المرج", "osm_id": 5349031066, "osm_type": "nodes" }, "geometry": { "type": "Point", "coordinates": [ 31.3357665, 30.1520818 ] } },
{ "type": "Feature", "properties": { "name": null, "name:en": null, "railway": "station", "ele": null, "operator:type": null, "layer": null, "addr:full": null, "addr:city": null, "source": null, "name:ar": null, "osm_id": 10581244167, "osm_type": "nodes" }, "geometry": { "type": "Point", "coordinates": [ 31.3540284, 30.1860597 ] } },
{ "type": "Feature", "properties": { "name": null, "name:en": null, "railway": "station", "ele": null, "operator:type": null, "layer": null, "addr:full": null, "addr:city": null, "source": null, "name:ar": null, "osm_id": 10581383567, "osm_type": "nodes" }, "geometry": { "type": "Point", "coordinates": [ 31.3608615, 30.2205771 ] } },
{ "type": "Feature", "properties": { "name": "الخانكة", "name:en": "Al Khanka", "railway": "station", "ele": null, "operator:type": null, "layer": null, "addr:full": null, "addr:city": null, "source": null, "name:ar": "الخانكة", "osm_id": 768551883, "osm_type": "nodes" }, "geometry": { "type": "Point", "coordinates": [ 31.3657336, 30.2130321 ] } },
{ "type": "Feature", "properties": { "name": null, "name:en": null, "railway": "station", "ele": null, "operator:type": null, "layer": null, "addr:full": null, "addr:city": null, "source": null, "name:ar": null, "osm_id": 10578741227, "osm_type": "nodes" }, "geometry": { "type": "Point", "coordinates": [ 31.2934196, 30.2807208 ] } },
{ "type": "Feature", "properties": { "name": "محطة شبين القناطر", "name:en": "Shebin Al-Qanater Station", "railway": "station", "ele": null, "operator:type": null, "layer": null, "addr:full": null, "addr:city": null, "source": null, "name:ar": "محطة شبين القناطر", "osm_id": 1041037218, "osm_type": "nodes" }, "geometry": { "type": "Point", "coordinates": [ 31.3154378, 30.3129898 ] } },
{ "type": "Feature", "properties": { "name": null, "name:en": null, "railway": "station", "ele": null, "operator:type": null, "layer": null, "addr:full": null, "addr:city": null, "source": null, "name:ar": null, "osm_id": 10581677984, "osm_type": "nodes" }, "geometry": { "type": "Point", "coordinates": [ 31.330877, 30.3051018 ] } },
{ "type": "Feature", "properties": { "name": null, "name:en": null, "railway": "station", "ele": null, "operator:type": null, "layer": null, "addr:full": null, "addr:city": null, "source": null, "name:ar": null, "osm_id": 10581934255, "osm_type": "nodes" }, "geometry": { "type": "Point", "coordinates": [ 31.5392045, 30.5048496 ] } },
{ "type": "Feature", "properties": { "name": "إمبابه", "name:en": "Imbaba", "railway": "station", "ele": null, "operator:type": null, "layer": null, "addr:full": null, "addr:city": null, "source": null, "name:ar": "إمبابه", "osm_id": 2265685728, "osm_type": "nodes" }, "geometry": { "type": "Point", "coordinates": [ 31.2177818, 30.0771206 ] } },
{ "type": "Feature", "properties": { "name": "شبين الكوم الجديدة", "name:en": "Shibin Al-Kom New Station", "railway": "station", "ele": null, "operator:type": null, "layer": null, "addr:full": null, "addr:city": null, "source": null, "name:ar": "شبين الكوم الجديدة", "osm_id": 1094599866, "osm_type": "nodes" }, "geometry": { "type": "Point", "coordinates": [ 30.9962229, 30.5691181 ] } },
{ "type": "Feature", "properties": { "name": "جيزة", "name:en": "Giza", "railway": "station", "ele": null, "operator:type": null, "layer": null, "addr:full": null, "addr:city": null, "source": null, "name:ar": "جيزة", "osm_id": 9162042097, "osm_type": "nodes" }, "geometry": { "type": "Point", "coordinates": [ 31.2071246, 30.0105702 ] } },
{ "type": "Feature", "properties": { "name": "أم المصريين", "name:en": "Omm El Misryeen", "railway": "station", "ele": null, "operator:type": null, "layer": null, "addr:full": null, "addr:city": null, "source": null, "name:ar": "أم المصريين", "osm_id": 316631605, "osm_type": "nodes" }, "geometry": { "type": "Point", "coordinates": [ 31.2079638, 30.0052084 ] } },
{ "type": "Feature", "properties": { "name": "الجيزة", "name:en": "Giza Suburbs", "railway": "station", "ele": null, "operator:type": null, "layer": null, "addr:full": null, "addr:city": null, "source": null, "name:ar": "الجيزة", "osm_id": 5217365043, "osm_type": "nodes" }, "geometry": { "type": "Point", "coordinates": [ 31.2082513, 30.0052451 ] } },
{ "type": "Feature", "properties": { "name": "فيصل", "name:en": "Faisal", "railway": "station", "ele": null, "operator:type": null, "layer": null, "addr:full": null, "addr:city": null, "source": null, "name:ar": "فيصل", "osm_id": 9162042096, "osm_type": "nodes" }, "geometry": { "type": "Point", "coordinates": [ 31.2040345, 30.0172948 ] } },
{ "type": "Feature", "properties": { "name": null, "name:en": null, "railway": "station", "ele": null, "operator:type": null, "layer": null, "addr:full": null, "addr:city": null, "source": null, "name:ar": null, "osm_id": 10565230147, "osm_type": "nodes" }, "geometry": { "type": "Point", "coordinates": [ 30.77992, 30.6287537 ] } },
{ "type": "Feature", "properties": { "name": null, "name:en": null, "railway": "station", "ele": null, "operator:type": null, "layer": null, "addr:full": null, "addr:city": null, "source": null, "name:ar": null, "osm_id": 10565267141, "osm_type": "nodes" }, "geometry": { "type": "Point", "coordinates": [ 30.8002456, 30.5461756 ] } },
{ "type": "Feature", "properties": { "name": null, "name:en": null, "railway": "station", "ele": null, "operator:type": null, "layer": null, "addr:full": null, "addr:city": null, "source": null, "name:ar": null, "osm_id": 10565267102, "osm_type": "nodes" }, "geometry": { "type": "Point", "coordinates": [ 30.7905264, 30.5851451 ] } },
{ "type": "Feature", "properties": { "name": null, "name:en": null, "railway": "station", "ele": null, "operator:type": null, "layer": null, "addr:full": null, "addr:city": null, "source": null, "name:ar": null, "osm_id": 10570746065, "osm_type": "nodes" }, "geometry": { "type": "Point", "coordinates": [ 30.8079828, 30.6655078 ] } },
{ "type": "Feature", "properties": { "name": null, "name:en": null, "railway": "station", "ele": null, "operator:type": null, "layer": null, "addr:full": null, "addr:city": null, "source": null, "name:ar": null, "osm_id": 10576245608, "osm_type": "nodes" }, "geometry": { "type": "Point", "coordinates": [ 30.9654107, 30.6161027 ] } },
{ "type": "Feature", "properties": { "name": "محطة الشهداء", "name:en": "Al Shuhada", "railway": "station", "ele": null, "operator:type": null, "layer": null, "addr:full": null, "addr:city": null, "source": null, "name:ar": "محطة الشهداء", "osm_id": 1039314336, "osm_type": "nodes" }, "geometry": { "type": "Point", "coordinates": [ 30.8975622, 30.5890905 ] } },
{ "type": "Feature", "properties": { "name": "عين شمس", "name:en": "Ain Shams", "railway": "station", "ele": null, "operator:type": null, "layer": null, "addr:full": null, "addr:city": null, "source": null, "name:ar": "عين شمس", "osm_id": 5349031068, "osm_type": "nodes" }, "geometry": { "type": "Point", "coordinates": [ 31.3198596, 30.1312396 ] } },
{ "type": "Feature", "properties": { "name": null, "name:en": null, "railway": "station", "ele": null, "operator:type": null, "layer": null, "addr:full": null, "addr:city": null, "source": null, "name:ar": null, "osm_id": 10581808559, "osm_type": "nodes" }, "geometry": { "type": "Point", "coordinates": [ 31.5501212, 30.4667832 ] } },
{ "type": "Feature", "properties": { "name": "محطة عزبة النخل", "name:en": "Ezbet en Nakhl", "railway": "station", "ele": null, "operator:type": null, "layer": null, "addr:full": null, "addr:city": "القاهرة", "source": null, "name:ar": "محطة عزبة النخل", "osm_id": 5349031067, "osm_type": "nodes" }, "geometry": { "type": "Point", "coordinates": [ 31.3244931, 30.1392826 ] } },
{ "type": "Feature", "properties": { "name": "الکيت کات", "name:en": "Kit-kat", "railway": "station", "ele": null, "operator:type": null, "layer": null, "addr:full": null, "addr:city": null, "source": null, "name:ar": "الکيت کات", "osm_id": 10099279487, "osm_type": "nodes" }, "geometry": { "type": "Point", "coordinates": [ 31.2129901, 30.0667936 ] } },
{ "type": "Feature", "properties": { "name": "بشتيل", "name:en": "Bashteel", "railway": "station", "ele": null, "operator:type": null, "layer": null, "addr:full": null, "addr:city": null, "source": null, "name:ar": "بشتيل", "osm_id": 2265692735, "osm_type": "nodes" }, "geometry": { "type": "Point", "coordinates": [ 31.1850927, 30.0709859 ] } },
{ "type": "Feature", "properties": { "name": "المحلة الكبرى", "name:en": "Al-Mahalla Al-Kubra", "railway": "station", "ele": null, "operator:type": null, "layer": null, "addr:full": null, "addr:city": null, "source": null, "name:ar": "المحلة الكبرى", "osm_id": 1015922905, "osm_type": "nodes" }, "geometry": { "type": "Point", "coordinates": [ 31.1691355, 30.9690765 ] } },
{ "type": "Feature", "properties": { "name": "الإستاد", "name:en": "Stadium", "railway": "station", "ele": null, "operator:type": null, "layer": null, "addr:full": null, "addr:city": null, "source": null, "name:ar": "الإستاد", "osm_id": 5194348153, "osm_type": "nodes" }, "geometry": { "type": "Point", "coordinates": [ 31.3173959, 30.072948 ] } },
{ "type": "Feature", "properties": { "name": "غمرة", "name:en": "Ghamra", "railway": "station", "ele": null, "operator:type": null, "layer": null, "addr:full": null, "addr:city": null, "source": null, "name:ar": "الغمرة", "osm_id": 5349031080, "osm_type": "nodes" }, "geometry": { "type": "Point", "coordinates": [ 31.2646738, 30.068964 ] } },
{ "type": "Feature", "properties": { "name": "محطة الفرز للسكة الحديد", "name:en": "Al-Farz Station", "railway": "station", "ele": null, "operator:type": null, "layer": null, "addr:full": null, "addr:city": null, "source": null, "name:ar": "محطة الفرز للسكة الحديد", "osm_id": 316877183, "osm_type": "nodes" }, "geometry": { "type": "Point", "coordinates": [ 31.2675878, 30.0865968 ] } },
{ "type": "Feature", "properties": { "name": "الدمرداش", "name:en": "Al-Demerdash", "railway": "station", "ele": null, "operator:type": null, "layer": null, "addr:full": null, "addr:city": null, "source": null, "name:ar": "الدمرداش", "osm_id": 5349031078, "osm_type": "nodes" }, "geometry": { "type": "Point", "coordinates": [ 31.2778133, 30.0772574 ] } },
{ "type": "Feature", "properties": { "name": "عبده باشا", "name:en": "Abdou Pasha", "railway": "station", "ele": null, "operator:type": null, "layer": null, "addr:full": null, "addr:city": null, "source": null, "name:ar": "عبده باشا", "osm_id": 5194348143, "osm_type": "nodes" }, "geometry": { "type": "Point", "coordinates": [ 31.2764492, 30.0654537 ] } },
{ "type": "Feature", "properties": { "name": "كوبري القبة", "name:en": "Kobri Al-Qobba", "railway": "station", "ele": null, "operator:type": null, "layer": null, "addr:full": null, "addr:city": null, "source": null, "name:ar": "كوبري القبة", "osm_id": 5349031076, "osm_type": "nodes" }, "geometry": { "type": "Point", "coordinates": [ 31.2938181, 30.0869694 ] } },
{ "type": "Feature", "properties": { "name": "منشية الصدر", "name:en": "Manshiet Al-Sadr", "railway": "station", "ele": null, "operator:type": null, "layer": null, "addr:full": null, "addr:city": null, "source": null, "name:ar": "منشية الصدر", "osm_id": 5349031077, "osm_type": "nodes" }, "geometry": { "type": "Point", "coordinates": [ 31.2878414, 30.0822064 ] } },
{ "type": "Feature", "properties": { "name": "العباسية", "name:en": "Abbassia", "railway": "station", "ele": null, "operator:type": null, "layer": null, "addr:full": null, "addr:city": null, "source": null, "name:ar": "العباسية", "osm_id": 5194348142, "osm_type": "nodes" }, "geometry": { "type": "Point", "coordinates": [ 31.2840893, 30.0727858 ] } },
{ "type": "Feature", "properties": { "name": "باب الشعرية", "name:en": "Bab el Shaaria", "railway": "station", "ele": null, "operator:type": null, "layer": null, "addr:full": null, "addr:city": null, "source": null, "name:ar": "باب الشعرية", "osm_id": 5194348146, "osm_type": "nodes" }, "geometry": { "type": "Point", "coordinates": [ 31.2576045, 30.0551319 ] } },
{ "type": "Feature", "properties": { "name": "الشهداء", "name:en": "Shuhada", "railway": "station", "ele": null, "operator:type": null, "layer": null, "addr:full": null, "addr:city": null, "source": null, "name:ar": "الشهداء", "osm_id": 5194295702, "osm_type": "nodes" }, "geometry": { "type": "Point", "coordinates": [ 31.2460174, 30.061851 ] } },
{ "type": "Feature", "properties": { "name": "الجيش", "name:en": "El Geish", "railway": "station", "ele": null, "operator:type": null, "layer": null, "addr:full": null, "addr:city": null, "source": null, "name:ar": "الجيش", "osm_id": 9710900077, "osm_type": "nodes" }, "geometry": { "type": "Point", "coordinates": [ 31.2679657, 30.0622694 ] } },
{ "type": "Feature", "properties": { "name": "قها", "name:en": "Qaha", "railway": "station", "ele": null, "operator:type": null, "layer": null, "addr:full": null, "addr:city": null, "source": null, "name:ar": "قها", "osm_id": 325795208, "osm_type": "nodes" }, "geometry": { "type": "Point", "coordinates": [ 31.2086823, 30.2849905 ] } },
{ "type": "Feature", "properties": { "name": "ماسبيرو", "name:en": "Masbero", "railway": "station", "ele": null, "operator:type": null, "layer": null, "addr:full": null, "addr:city": null, "source": null, "name:ar": "ماسبيرو", "osm_id": 10099279472, "osm_type": "nodes" }, "geometry": { "type": "Point", "coordinates": [ 31.2322096, 30.0554909 ] } },
{ "type": "Feature", "properties": { "name": null, "name:en": null, "railway": "station", "ele": null, "operator:type": null, "layer": null, "addr:full": null, "addr:city": null, "source": null, "name:ar": null, "osm_id": 10570274721, "osm_type": "nodes" }, "geometry": { "type": "Point", "coordinates": [ 31.1423814, 30.1506242 ] } },
{ "type": "Feature", "properties": { "name": null, "name:en": null, "railway": "station", "ele": null, "operator:type": null, "layer": null, "addr:full": null, "addr:city": null, "source": null, "name:ar": null, "osm_id": 1814704159, "osm_type": "nodes" }, "geometry": { "type": "Point", "coordinates": [ 31.0690126, 30.1744829 ] } },
{ "type": "Feature", "properties": { "name": null, "name:en": null, "railway": "station", "ele": null, "operator:type": null, "layer": null, "addr:full": null, "addr:city": null, "source": null, "name:ar": null, "osm_id": 10578508544, "osm_type": "nodes" }, "geometry": { "type": "Point", "coordinates": [ 31.1389536, 30.1952538 ] } },
{ "type": "Feature", "properties": { "name": null, "name:en": null, "railway": "station", "ele": null, "operator:type": null, "layer": null, "addr:full": null, "addr:city": null, "source": null, "name:ar": null, "osm_id": 10578620879, "osm_type": "nodes" }, "geometry": { "type": "Point", "coordinates": [ 31.2662771, 30.2338684 ] } },
{ "type": "Feature", "properties": { "name": null, "name:en": null, "railway": "station", "ele": null, "operator:type": null, "layer": null, "addr:full": null, "addr:city": null, "source": null, "name:ar": null, "osm_id": 10578620851, "osm_type": "nodes" }, "geometry": { "type": "Point", "coordinates": [ 31.2435468, 30.2098388 ] } },
{ "type": "Feature", "properties": { "name": null, "name:en": null, "railway": "station", "ele": null, "operator:type": null, "layer": null, "addr:full": null, "addr:city": null, "source": null, "name:ar": null, "osm_id": 1749540644, "osm_type": "nodes" }, "geometry": { "type": "Point", "coordinates": [ 31.1026567, 30.1788215 ] } },
{ "type": "Feature", "properties": { "name": "صفاء حجازي", "name:en": "Safaa Hegazy", "railway": "station", "ele": null, "operator:type": null, "layer": null, "addr:full": null, "addr:city": null, "source": null, "name:ar": "صفاء حجازي", "osm_id": 10099279485, "osm_type": "nodes" }, "geometry": { "type": "Point", "coordinates": [ 31.2225161, 30.062404 ] } },
{ "type": "Feature", "properties": { "name": "السيدة زينب", "name:en": "Sayyeda Zeinab", "railway": "station", "ele": null, "operator:type": null, "layer": null, "addr:full": null, "addr:city": null, "source": null, "name:ar": "السيدة زينب", "osm_id": 5349031090, "osm_type": "nodes" }, "geometry": { "type": "Point", "coordinates": [ 31.2353861, 30.0292488 ] } },
{ "type": "Feature", "properties": { "name": "سعد زغلول", "name:en": "Saad Zaghloul", "railway": "station", "ele": null, "operator:type": null, "layer": null, "addr:full": null, "addr:city": null, "source": null, "name:ar": "سعد زغلول", "osm_id": 5349031086, "osm_type": "nodes" }, "geometry": { "type": "Point", "coordinates": [ 31.2380818, 30.036568 ] } },
{ "type": "Feature", "properties": { "name": "السادات", "name:en": "Sadat", "railway": "station", "ele": null, "operator:type": null, "layer": null, "addr:full": null, "addr:city": null, "source": null, "name:ar": "السادات", "osm_id": 316633428, "osm_type": "nodes" }, "geometry": { "type": "Point", "coordinates": [ 31.2353785, 30.0439485 ] } },
{ "type": "Feature", "properties": { "name": "ناصر", "name:en": "Nasser", "railway": "station", "ele": null, "operator:type": null, "layer": null, "addr:full": null, "addr:city": null, "source": null, "name:ar": "ناصر", "osm_id": 5349031081, "osm_type": "nodes" }, "geometry": { "type": "Point", "coordinates": [ 31.2388016, 30.0535567 ] } },
{ "type": "Feature", "properties": { "name": "الأوبرا", "name:en": "Opera", "railway": "station", "ele": null, "operator:type": null, "layer": null, "addr:full": null, "addr:city": "القاهرة", "source": null, "name:ar": "الأوبرا", "osm_id": 316632961, "osm_type": "nodes" }, "geometry": { "type": "Point", "coordinates": [ 31.2250592, 30.0419584 ] } },
{ "type": "Feature", "properties": { "name": null, "name:en": null, "railway": "station", "ele": null, "operator:type": null, "layer": null, "addr:full": null, "addr:city": null, "source": null, "name:ar": null, "osm_id": 10578507410, "osm_type": "nodes" }, "geometry": { "type": "Point", "coordinates": [ 31.2044616, 30.1814919 ] } },
{ "type": "Feature", "properties": { "name": "العبور", "name:en": "El-Obour", "railway": "station", "ele": null, "operator:type": null, "layer": null, "addr:full": null, "addr:city": null, "source": null, "name:ar": null, "osm_id": 9885252630, "osm_type": "nodes" }, "geometry": { "type": "Point", "coordinates": [ 31.4815378, 30.1628857 ] } },
{ "type": "Feature", "properties": { "name": null, "name:en": null, "railway": "station", "ele": null, "operator:type": null, "layer": null, "addr:full": null, "addr:city": null, "source": null, "name:ar": null, "osm_id": 10576965697, "osm_type": "nodes" }, "geometry": { "type": "Point", "coordinates": [ 31.094854, 30.2209041 ] } },
{ "type": "Feature", "properties": { "name": "نجيب", "name:en": "Mohamed Naguib", "railway": "station", "ele": null, "operator:type": null, "layer": null, "addr:full": null, "addr:city": null, "source": null, "name:ar": "محمد نجيب", "osm_id": 329978615, "osm_type": "nodes" }, "geometry": { "type": "Point", "coordinates": [ 31.244276, 30.0453923 ] } },
{ "type": "Feature", "properties": { "name": "عرابي", "name:en": "Orabi", "railway": "station", "ele": null, "operator:type": null, "layer": null, "addr:full": null, "addr:city": null, "source": null, "name:ar": "عرابي", "osm_id": 5353485467, "osm_type": "nodes" }, "geometry": { "type": "Point", "coordinates": [ 31.2425378, 30.0573315 ] } },
{ "type": "Feature", "properties": { "name": "محطة قويسنا", "name:en": "Mahattat Quwaysina", "railway": "station", "ele": null, "operator:type": null, "layer": null, "addr:full": null, "addr:city": null, "source": null, "name:ar": "محطة قويسنا", "osm_id": 1088289923, "osm_type": "nodes" }, "geometry": { "type": "Point", "coordinates": [ 31.1399548, 30.5474791 ] } },
{ "type": "Feature", "properties": { "name": "محلة روح", "name:en": "Mehallet Roh", "railway": "station", "ele": null, "operator:type": null, "layer": null, "addr:full": null, "addr:city": null, "source": null, "name:ar": "محلة روح", "osm_id": 1033287435, "osm_type": "nodes" }, "geometry": { "type": "Point", "coordinates": [ 31.0840581, 30.8733118 ] } },
{ "type": "Feature", "properties": { "name": null, "name:en": null, "railway": "station", "ele": null, "operator:type": null, "layer": null, "addr:full": null, "addr:city": null, "source": null, "name:ar": null, "osm_id": 10576965659, "osm_type": "nodes" }, "geometry": { "type": "Point", "coordinates": [ 31.0740197, 30.2434203 ] } },
{ "type": "Feature", "properties": { "name": "طوخ", "name:en": "Tukh", "railway": "station", "ele": null, "operator:type": null, "layer": null, "addr:full": null, "addr:city": null, "source": null, "name:ar": "طوخ", "osm_id": 325794384, "osm_type": "nodes" }, "geometry": { "type": "Point", "coordinates": [ 31.1971568, 30.3555922 ] } },
{ "type": "Feature", "properties": { "name": "بنها", "name:en": "Banha", "railway": "station", "ele": null, "operator:type": null, "layer": null, "addr:full": null, "addr:city": null, "source": null, "name:ar": "بنها", "osm_id": 1029624589, "osm_type": "nodes" }, "geometry": { "type": "Point", "coordinates": [ 31.1809685, 30.4560749 ] } },
{ "type": "Feature", "properties": { "name": "بركة السبع", "name:en": "Birket Al-Saba", "railway": "station", "ele": null, "operator:type": null, "layer": null, "addr:full": null, "addr:city": null, "source": null, "name:ar": "بركة السبع", "osm_id": 1092461886, "osm_type": "nodes" }, "geometry": { "type": "Point", "coordinates": [ 31.0802481, 30.6364457 ] } },
{ "type": "Feature", "properties": { "name": null, "name:en": null, "railway": "station", "ele": null, "operator:type": null, "layer": null, "addr:full": null, "addr:city": null, "source": null, "name:ar": null, "osm_id": 10578824948, "osm_type": "nodes" }, "geometry": { "type": "Point", "coordinates": [ 31.3480163, 30.1758481 ] } },
{ "type": "Feature", "properties": { "name": "محطة السنطة", "name:en": "El Santa", "railway": "station", "ele": null, "operator:type": null, "layer": null, "addr:full": null, "addr:city": null, "source": null, "name:ar": "محطة السنطة", "osm_id": 1093710418, "osm_type": "nodes" }, "geometry": { "type": "Point", "coordinates": [ 31.1224677, 30.7305486 ] } },
{ "type": "Feature", "properties": { "name": "زفتى", "name:en": "Zifta", "railway": "station", "ele": null, "operator:type": null, "layer": null, "addr:full": null, "addr:city": null, "source": null, "name:ar": "زفتى", "osm_id": 1093564915, "osm_type": "nodes" }, "geometry": { "type": "Point", "coordinates": [ 31.2447861, 30.7230512 ] } },
{ "type": "Feature", "properties": { "name": null, "name:en": null, "railway": "station", "ele": null, "operator:type": null, "layer": null, "addr:full": null, "addr:city": null, "source": null, "name:ar": null, "osm_id": 10603673210, "osm_type": "nodes" }, "geometry": { "type": "Point", "coordinates": [ 31.4267011, 30.6230453 ] } },
{ "type": "Feature", "properties": { "name": "البحوث", "name:en": "Behooth", "railway": "station", "ele": null, "operator:type": null, "layer": "-1", "addr:full": null, "addr:city": null, "source": null, "name:ar": "البحوث", "osm_id": 316632871, "osm_type": "nodes" }, "geometry": { "type": "Point", "coordinates": [ 31.2003443, 30.0357796 ] } },
{ "type": "Feature", "properties": { "name": "الدقى", "name:en": "Dokki", "railway": "station", "ele": null, "operator:type": null, "layer": null, "addr:full": null, "addr:city": null, "source": null, "name:ar": "الدقى", "osm_id": 316632940, "osm_type": "nodes" }, "geometry": { "type": "Point", "coordinates": [ 31.2120446, 30.0382224 ] } },
{ "type": "Feature", "properties": { "name": "أرض المعارض", "name:en": "Cairo fair", "railway": "station", "ele": null, "operator:type": null, "layer": null, "addr:full": null, "addr:city": null, "source": null, "name:ar": "أرض المعارض", "osm_id": 5194348141, "osm_type": "nodes" }, "geometry": { "type": "Point", "coordinates": [ 31.3011479, 30.073329 ] } },
{ "type": "Feature", "properties": { "name": "مار جرجس", "name:en": "Mar Girgis", "railway": "station", "ele": null, "operator:type": null, "layer": null, "addr:full": null, "addr:city": null, "source": null, "name:ar": "مار جرجس", "osm_id": 5218109287, "osm_type": "nodes" }, "geometry": { "type": "Point", "coordinates": [ 31.2295229, 30.0058496 ] } },
{ "type": "Feature", "properties": { "name": "قليوب", "name:en": "Qalyub", "railway": "station", "ele": null, "operator:type": null, "layer": null, "addr:full": null, "addr:city": null, "source": null, "name:ar": "قليوب", "osm_id": 324557234, "osm_type": "nodes" }, "geometry": { "type": "Point", "coordinates": [ 31.2254317, 30.1797847 ] } },
{ "type": "Feature", "properties": { "name": "سبك الضحاك", "name:en": "Subk Al-Dahak", "railway": "station", "ele": null, "operator:type": null, "layer": null, "addr:full": null, "addr:city": null, "source": null, "name:ar": "سبك الضحاك", "osm_id": 1039990521, "osm_type": "nodes" }, "geometry": { "type": "Point", "coordinates": [ 31.0693522, 30.4425816 ] } },
{ "type": "Feature", "properties": { "name": "ابو زعبل البلد", "name:en": "Abu Zaabal Al-Balad", "railway": "station", "ele": null, "operator:type": null, "layer": null, "addr:full": null, "addr:city": null, "source": null, "name:ar": "ابو زعبل البلد", "osm_id": 325776390, "osm_type": "nodes" }, "geometry": { "type": "Point", "coordinates": [ 31.3552816, 30.2497151 ] } },
{ "type": "Feature", "properties": { "name": "محطة بغدادلي باشا", "name:en": "Mahattat Baghdadli Basha", "railway": "station", "ele": null, "operator:type": null, "layer": null, "addr:full": null, "addr:city": null, "source": null, "name:ar": "محطة بغدادلي باشا", "osm_id": 768565346, "osm_type": "nodes" }, "geometry": { "type": "Point", "coordinates": [ 31.333333, 30.6 ] } },
{ "type": "Feature", "properties": { "name": "كفر الزيات", "name:en": "Kafr Al-Zaiyat", "railway": "station", "ele": null, "operator:type": null, "layer": null, "addr:full": null, "addr:city": null, "source": null, "name:ar": "كفر الزيات", "osm_id": 1039313595, "osm_type": "nodes" }, "geometry": { "type": "Point", "coordinates": [ 30.8153498, 30.8190079 ] } },
{ "type": "Feature", "properties": { "name": "المرج", "name:en": "Al-Marg", "railway": "station", "ele": null, "operator:type": null, "layer": null, "addr:full": null, "addr:city": null, "source": null, "name:ar": "المرج", "osm_id": 325778920, "osm_type": "nodes" }, "geometry": { "type": "Point", "coordinates": [ 31.3395991, 30.1647603 ] } },
{ "type": "Feature", "properties": { "name": "فاقوس", "name:en": "Faqous", "railway": "station", "ele": null, "operator:type": null, "layer": null, "addr:full": null, "addr:city": null, "source": null, "name:ar": "فاقوس", "osm_id": 1039567147, "osm_type": "nodes" }, "geometry": { "type": "Point", "coordinates": [ 31.7945156, 30.7274994 ] } },
{ "type": "Feature", "properties": { "name": "الشيخ القاسمي", "name:en": "Al Shaykh al Qasimi", "railway": "station", "ele": null, "operator:type": null, "layer": null, "addr:full": null, "addr:city": null, "source": null, "name:ar": "الشيخ القاسمي", "osm_id": 769129229, "osm_type": "nodes" }, "geometry": { "type": "Point", "coordinates": [ 31.466667, 30.816667 ] } },
{ "type": "Feature", "properties": { "name": "سانت تيريزا", "name:en": "Sainte Teresa", "railway": "station", "ele": null, "operator:type": null, "layer": null, "addr:full": null, "addr:city": null, "source": null, "name:ar": "سانت تيريزا", "osm_id": 316634831, "osm_type": "nodes" }, "geometry": { "type": "Point", "coordinates": [ 31.2454098, 30.0883026 ] } },
{ "type": "Feature", "properties": { "name": "محطة مترو روض الفرج", "name:en": "Rawd El-Farag", "railway": "station", "ele": null, "operator:type": null, "layer": null, "addr:full": null, "addr:city": null, "source": null, "name:ar": "محطة مترو روض الفرج", "osm_id": 316634715, "osm_type": "nodes" }, "geometry": { "type": "Point", "coordinates": [ 31.245351, 30.0805647 ] } },
{ "type": "Feature", "properties": { "name": null, "name:en": null, "railway": "station", "ele": null, "operator:type": null, "layer": null, "addr:full": null, "addr:city": null, "source": null, "name:ar": null, "osm_id": 10581940271, "osm_type": "nodes" }, "geometry": { "type": "Point", "coordinates": [ 31.5902089, 30.6706516 ] } },
{ "type": "Feature", "properties": { "name": "منيا القمح", "name:en": "Minya Al-Qamh", "railway": "station", "ele": null, "operator:type": null, "layer": null, "addr:full": null, "addr:city": null, "source": null, "name:ar": "منيا القمح", "osm_id": 1086218676, "osm_type": "nodes" }, "geometry": { "type": "Point", "coordinates": [ 31.34161, 30.5146824 ] } },
{ "type": "Feature", "properties": { "name": "حي شبرا", "name:en": "Massara", "railway": "station", "ele": null, "operator:type": null, "layer": null, "addr:full": null, "addr:city": null, "source": null, "name:ar": "حي شبرا", "osm_id": 316634158, "osm_type": "nodes" }, "geometry": { "type": "Point", "coordinates": [ 31.2450193, 30.0710937 ] } },
{ "type": "Feature", "properties": { "name": "سمنود", "name:en": "Samannud", "railway": "station", "ele": null, "operator:type": null, "layer": null, "addr:full": null, "addr:city": null, "source": null, "name:ar": "سمنود", "osm_id": 6487765587, "osm_type": "nodes" }, "geometry": { "type": "Point", "coordinates": [ 31.2466416, 30.964743 ] } },
{ "type": "Feature", "properties": { "name": null, "name:en": null, "railway": "station", "ele": null, "operator:type": null, "layer": null, "addr:full": null, "addr:city": null, "source": null, "name:ar": null, "osm_id": 10603658770, "osm_type": "nodes" }, "geometry": { "type": "Point", "coordinates": [ 31.3604973, 30.6678723 ] } },
{ "type": "Feature", "properties": { "name": null, "name:en": null, "railway": "station", "ele": null, "operator:type": null, "layer": null, "addr:full": null, "addr:city": null, "source": null, "name:ar": null, "osm_id": 10603575099, "osm_type": "nodes" }, "geometry": { "type": "Point", "coordinates": [ 31.315052, 30.693351 ] } },
{ "type": "Feature", "properties": { "name": "العتبة", "name:en": "Attaba", "railway": "station", "ele": null, "operator:type": null, "layer": null, "addr:full": null, "addr:city": null, "source": null, "name:ar": "العتبة", "osm_id": 5194348149, "osm_type": "nodes" }, "geometry": { "type": "Point", "coordinates": [ 31.246899, 30.0524299 ] } },
{ "type": "Feature", "properties": { "name": "العيط", "name:en": "El-Aiat", "railway": "station", "ele": null, "operator:type": null, "layer": null, "addr:full": null, "addr:city": null, "source": null, "name:ar": "العيط", "osm_id": 316710105, "osm_type": "nodes" }, "geometry": { "type": "Point", "coordinates": [ 31.2558359, 29.6200085 ] } },
{ "type": "Feature", "properties": { "name": "دار السلام", "name:en": "Dar Al-Salam", "railway": "station", "ele": null, "operator:type": null, "layer": null, "addr:full": null, "addr:city": null, "source": null, "name:ar": "دار السلام", "osm_id": 5194246947, "osm_type": "nodes" }, "geometry": { "type": "Point", "coordinates": [ 31.2422043, 29.98203 ] } },
{ "type": "Feature", "properties": { "name": null, "name:en": null, "railway": "station", "ele": null, "operator:type": null, "layer": null, "addr:full": null, "addr:city": null, "source": null, "name:ar": null, "osm_id": 10588534380, "osm_type": "nodes" }, "geometry": { "type": "Point", "coordinates": [ 31.4222469, 30.9586573 ] } },
{ "type": "Feature", "properties": { "name": null, "name:en": null, "railway": "station", "ele": null, "operator:type": null, "layer": null, "addr:full": null, "addr:city": null, "source": null, "name:ar": null, "osm_id": 10584158563, "osm_type": "nodes" }, "geometry": { "type": "Point", "coordinates": [ 31.8768507, 30.7427728 ] } },
{ "type": "Feature", "properties": { "name": null, "name:en": null, "railway": "station", "ele": null, "operator:type": null, "layer": null, "addr:full": null, "addr:city": null, "source": null, "name:ar": null, "osm_id": 10584190924, "osm_type": "nodes" }, "geometry": { "type": "Point", "coordinates": [ 31.9420846, 30.7622512 ] } },
{ "type": "Feature", "properties": { "name": "محطة الجبل الأصفر", "name:en": "Mahattat al Jabal al Asfar", "railway": "station", "ele": null, "operator:type": null, "layer": null, "addr:full": null, "addr:city": null, "source": "bing", "name:ar": "محطة الجبل الأصفر", "osm_id": 325776301, "osm_type": "nodes" }, "geometry": { "type": "Point", "coordinates": [ 31.3628289, 30.2040303 ] } },
{ "type": "Feature", "properties": { "name": null, "name:en": null, "railway": "station", "ele": null, "operator:type": null, "layer": null, "addr:full": null, "addr:city": null, "source": null, "name:ar": null, "osm_id": 10586781704, "osm_type": "nodes" }, "geometry": { "type": "Point", "coordinates": [ 31.6278657, 30.7922993 ] } },
{ "type": "Feature", "properties": { "name": null, "name:en": null, "railway": "station", "ele": null, "operator:type": null, "layer": null, "addr:full": null, "addr:city": null, "source": null, "name:ar": null, "osm_id": 10586781684, "osm_type": "nodes" }, "geometry": { "type": "Point", "coordinates": [ 31.6356697, 30.7832411 ] } },
{ "type": "Feature", "properties": { "name": "أبو الشقوق", "name:en": "Abu Al-Shuquq", "railway": "station", "ele": null, "operator:type": null, "layer": null, "addr:full": null, "addr:city": null, "source": null, "name:ar": "أبو الشقوق", "osm_id": 1039542007, "osm_type": "nodes" }, "geometry": { "type": "Point", "coordinates": [ 31.591333, 30.8323379 ] } },
{ "type": "Feature", "properties": { "name": "السماعنة", "name:en": "Al-Samaanah", "railway": "station", "ele": null, "operator:type": null, "layer": null, "addr:full": null, "addr:city": null, "source": null, "name:ar": "السماعنة", "osm_id": 1039566997, "osm_type": "nodes" }, "geometry": { "type": "Point", "coordinates": [ 31.8614954, 30.7864071 ] } },
{ "type": "Feature", "properties": { "name": "نادي الشمس‎", "name:en": "El Shams Club", "railway": "station", "ele": null, "operator:type": null, "layer": null, "addr:full": null, "addr:city": null, "source": null, "name:ar": null, "osm_id": 7153613351, "osm_type": "nodes" }, "geometry": { "type": "Point", "coordinates": [ 31.3439721, 30.1223062 ] } },
{ "type": "Feature", "properties": { "name": null, "name:en": null, "railway": "station", "ele": null, "operator:type": null, "layer": null, "addr:full": null, "addr:city": null, "source": null, "name:ar": null, "osm_id": 10586876547, "osm_type": "nodes" }, "geometry": { "type": "Point", "coordinates": [ 31.5301049, 30.8552906 ] } },
{ "type": "Feature", "properties": { "name": "ميت غمر", "name:en": "Mit Ghamr", "railway": "station", "ele": null, "operator:type": null, "layer": null, "addr:full": null, "addr:city": null, "source": null, "name:ar": "ميت غمر", "osm_id": 1029706810, "osm_type": "nodes" }, "geometry": { "type": "Point", "coordinates": [ 31.2604983, 30.7191272 ] } },
{ "type": "Feature", "properties": { "name": "أبو كبير", "name:en": "Abu Kabir", "railway": "station", "ele": null, "operator:type": null, "layer": null, "addr:full": null, "addr:city": "أبو كبير‎", "source": null, "name:ar": "أبو كبير", "osm_id": 1027144453, "osm_type": "nodes" }, "geometry": { "type": "Point", "coordinates": [ 31.6685518, 30.7270309 ] } },
{ "type": "Feature", "properties": { "name": null, "name:en": null, "railway": "station", "ele": null, "operator:type": null, "layer": null, "addr:full": null, "addr:city": null, "source": null, "name:ar": null, "osm_id": 10584058370, "osm_type": "nodes" }, "geometry": { "type": "Point", "coordinates": [ 31.7214062, 30.7413731 ] } },
{ "type": "Feature", "properties": { "name": "هارون", "name:en": "Haroun", "railway": "station", "ele": null, "operator:type": null, "layer": null, "addr:full": null, "addr:city": null, "source": null, "name:ar": "هارون", "osm_id": 7153613352, "osm_type": "nodes" }, "geometry": { "type": "Point", "coordinates": [ 31.332762, 30.1011092 ] } },
{ "type": "Feature", "properties": { "name": "السنبلاوين", "name:en": "Al-Sunbullawayn", "railway": "station", "ele": null, "operator:type": null, "layer": null, "addr:full": null, "addr:city": null, "source": null, "name:ar": "محطة قطار مدينة السنبلاوين", "osm_id": 1039541796, "osm_type": "nodes" }, "geometry": { "type": "Point", "coordinates": [ 31.4616742, 30.8842583 ] } },
{ "type": "Feature", "properties": { "name": "عين شمس", "name:en": "Ain Shams", "railway": "station", "ele": null, "operator:type": null, "layer": null, "addr:full": null, "addr:city": null, "source": null, "name:ar": "عين شمس", "osm_id": 5349031069, "osm_type": "nodes" }, "geometry": { "type": "Point", "coordinates": [ 31.3190751, 30.1310378 ] } },
{ "type": "Feature", "properties": { "name": "دمياط", "name:en": "Dumiat", "railway": "station", "ele": null, "operator:type": null, "layer": null, "addr:full": null, "addr:city": null, "source": null, "name:ar": "دمياط", "osm_id": 1020478764, "osm_type": "nodes" }, "geometry": { "type": "Point", "coordinates": [ 31.8071941, 31.4196953 ] } },
{ "type": "Feature", "properties": { "name": null, "name:en": null, "railway": "station", "ele": null, "operator:type": null, "layer": null, "addr:full": null, "addr:city": null, "source": null, "name:ar": null, "osm_id": 10632896823, "osm_type": "nodes" }, "geometry": { "type": "Point", "coordinates": [ 32.3042389, 31.1371521 ] } },
{ "type": "Feature", "properties": { "name": null, "name:en": null, "railway": "station", "ele": null, "operator:type": null, "layer": null, "addr:full": null, "addr:city": null, "source": null, "name:ar": null, "osm_id": 10636168484, "osm_type": "nodes" }, "geometry": { "type": "Point", "coordinates": [ 32.3107283, 30.9466964 ] } },
{ "type": "Feature", "properties": { "name": "محطة التينة", "name:en": "Al Tineh", "railway": "station", "ele": null, "operator:type": null, "layer": null, "addr:full": null, "addr:city": null, "source": null, "name:ar": "محطة التينة", "osm_id": 768596447, "osm_type": "nodes" }, "geometry": { "type": "Point", "coordinates": [ 32.3074707, 31.0425076 ] } },
{ "type": "Feature", "properties": { "name": "عزبة الكاب", "name:en": "Ezbet al Cap", "railway": "station", "ele": null, "operator:type": null, "layer": null, "addr:full": null, "addr:city": null, "source": null, "name:ar": "عزبة الكاب", "osm_id": 768596322, "osm_type": "nodes" }, "geometry": { "type": "Point", "coordinates": [ 32.307778, 30.950556 ] } },
{ "type": "Feature", "properties": { "name": "قنطرة شرقية", "name:en": "Qantara Sharqeya", "railway": "station", "ele": null, "operator:type": null, "layer": null, "addr:full": null, "addr:city": null, "source": null, "name:ar": "قنطرة شرقية", "osm_id": 1040789405, "osm_type": "nodes" }, "geometry": { "type": "Point", "coordinates": [ 32.3971264, 30.8666855 ] } },
{ "type": "Feature", "properties": { "name": "Gelbana", "name:en": null, "railway": "station", "ele": null, "operator:type": null, "layer": null, "addr:full": null, "addr:city": null, "source": null, "name:ar": "محطة قطار جلبانة", "osm_id": 1088062020, "osm_type": "nodes" }, "geometry": { "type": "Point", "coordinates": [ 32.5012148, 30.9348704 ] } },
{ "type": "Feature", "properties": { "name": "بئر العبد", "name:en": "Bir el Abd", "railway": "station", "ele": null, "operator:type": null, "layer": null, "addr:full": null, "addr:city": "بئر العبد", "source": null, "name:ar": "بئر العبد", "osm_id": 1040814157, "osm_type": "nodes" }, "geometry": { "type": "Point", "coordinates": [ 33.0076793, 31.0033823 ] } },
{ "type": "Feature", "properties": { "name": "محطة عين حلوان", "name:en": "Ain Helwan", "railway": "station", "ele": null, "operator:type": null, "layer": null, "addr:full": null, "addr:city": null, "source": null, "name:ar": "محطة عين حلوان", "osm_id": 5344953911, "osm_type": "nodes" }, "geometry": { "type": "Point", "coordinates": [ 31.3250068, 29.8626591 ] } },
{ "type": "Feature", "properties": { "name": null, "name:en": null, "railway": "station", "ele": null, "operator:type": null, "layer": null, "addr:full": null, "addr:city": null, "source": null, "name:ar": null, "osm_id": 10669009257, "osm_type": "nodes" }, "geometry": { "type": "Point", "coordinates": [ 32.5521033, 30.0618741 ] } },
{ "type": "Feature", "properties": { "name": "محطة الشلوفة", "name:en": "Shallufa Station", "railway": "station", "ele": null, "operator:type": null, "layer": null, "addr:full": null, "addr:city": null, "source": null, "name:ar": "محطة الشلوفة", "osm_id": 1520761930, "osm_type": "nodes" }, "geometry": { "type": "Point", "coordinates": [ 32.5632019, 30.1167134 ] } },
{ "type": "Feature", "properties": { "name": null, "name:en": null, "railway": "station", "ele": null, "operator:type": null, "layer": null, "addr:full": null, "addr:city": null, "source": null, "name:ar": null, "osm_id": 1871904376, "osm_type": "nodes" }, "geometry": { "type": "Point", "coordinates": [ 32.8396093, 30.9995916 ] } },
{ "type": "Feature", "properties": { "name": null, "name:en": null, "railway": "station", "ele": null, "operator:type": null, "layer": null, "addr:full": null, "addr:city": null, "source": null, "name:ar": null, "osm_id": 1871908167, "osm_type": "nodes" }, "geometry": { "type": "Point", "coordinates": [ 32.6819464, 30.9974532 ] } },
{ "type": "Feature", "properties": { "name": "Baloza", "name:en": null, "railway": "station", "ele": null, "operator:type": null, "layer": null, "addr:full": null, "addr:city": null, "source": null, "name:ar": "محطة قطار بالوظة", "osm_id": 1088063381, "osm_type": "nodes" }, "geometry": { "type": "Point", "coordinates": [ 32.556183, 30.9979359 ] } },
{ "type": "Feature", "properties": { "name": "السويس", "name:en": "Al-Suez", "railway": "station", "ele": null, "operator:type": null, "layer": null, "addr:full": null, "addr:city": null, "source": null, "name:ar": "السويس", "osm_id": 2555058697, "osm_type": "nodes" }, "geometry": { "type": "Point", "coordinates": [ 32.5276688, 29.9891764 ] } },
{ "type": "Feature", "properties": { "name": "البعالوة", "name:en": "Al Baaliwah", "railway": "station", "ele": null, "operator:type": null, "layer": null, "addr:full": null, "addr:city": null, "source": null, "name:ar": "البعالوة", "osm_id": 768592894, "osm_type": "nodes" }, "geometry": { "type": "Point", "coordinates": [ 31.8581665, 30.5480825 ] } },
{ "type": "Feature", "properties": { "name": "أبو قير", "name:en": "Abu Qir", "railway": "station", "ele": null, "operator:type": null, "layer": null, "addr:full": null, "addr:city": null, "source": null, "name:ar": "أبو قير", "osm_id": 316713741, "osm_type": "nodes" }, "geometry": { "type": "Point", "coordinates": [ 30.0617561, 31.3172285 ] } },
{ "type": "Feature", "properties": { "name": null, "name:en": null, "railway": "station", "ele": null, "operator:type": null, "layer": null, "addr:full": null, "addr:city": null, "source": null, "name:ar": null, "osm_id": 10673054066, "osm_type": "nodes" }, "geometry": { "type": "Point", "coordinates": [ 31.9354762, 30.5624229 ] } },
{ "type": "Feature", "properties": { "name": "المنشاة", "name:en": "Al-Manshah", "railway": "station", "ele": null, "operator:type": null, "layer": null, "addr:full": null, "addr:city": null, "source": null, "name:ar": "المنشاة", "osm_id": 520512542, "osm_type": "nodes" }, "geometry": { "type": "Point", "coordinates": [ 31.7967128, 26.475705 ] } },
{ "type": "Feature", "properties": { "name": "كوم أمبو", "name:en": "Kom Ombo", "railway": "station", "ele": null, "operator:type": null, "layer": null, "addr:full": null, "addr:city": "كوم أمبو", "source": null, "name:ar": "كوم أمبو", "osm_id": 4621666790, "osm_type": "nodes" }, "geometry": { "type": "Point", "coordinates": [ 32.9470168, 24.476656 ] } },
{ "type": "Feature", "properties": { "name": "محطة الخطارة", "name:en": "Mahattat al Khattarah", "railway": "station", "ele": null, "operator:type": null, "layer": null, "addr:full": null, "addr:city": null, "source": null, "name:ar": "محطة الخطارة", "osm_id": 768077221, "osm_type": "nodes" }, "geometry": { "type": "Point", "coordinates": [ 32.8755759, 24.2047501 ] } },
{ "type": "Feature", "properties": { "name": "ثكنات المعادي", "name:en": "Thakanat El-Maadi", "railway": "station", "ele": null, "operator:type": null, "layer": null, "addr:full": null, "addr:city": null, "source": null, "name:ar": "ثكنات المعادي", "osm_id": 316638736, "osm_type": "nodes" }, "geometry": { "type": "Point", "coordinates": [ 31.2634668, 29.9528426 ] } },
{ "type": "Feature", "properties": { "name": "المعادى", "name:en": "Maadi", "railway": "station", "ele": null, "operator:type": null, "layer": null, "addr:full": null, "addr:city": null, "source": null, "name:ar": "المعادى", "osm_id": 312555676, "osm_type": "nodes" }, "geometry": { "type": "Point", "coordinates": [ 31.2580736, 29.9598395 ] } },
{ "type": "Feature", "properties": { "name": "المنيا", "name:en": "Al-Minya", "railway": "station", "ele": null, "operator:type": null, "layer": null, "addr:full": null, "addr:city": null, "source": null, "name:ar": "المنيا", "osm_id": 1022358058, "osm_type": "nodes" }, "geometry": { "type": "Point", "coordinates": [ 30.7534861, 28.0967978 ] } },
{ "type": "Feature", "properties": { "name": "محطة سيلة", "name:en": "Sella", "railway": "station", "ele": null, "operator:type": null, "layer": null, "addr:full": null, "addr:city": null, "source": null, "name:ar": "محطة سيلة", "osm_id": 768556869, "osm_type": "nodes" }, "geometry": { "type": "Point", "coordinates": [ 30.9723531, 29.3319131 ] } },
{ "type": "Feature", "properties": { "name": "كفر الدوار", "name:en": "Kafr El-Dauwar", "railway": "station", "ele": null, "operator:type": null, "layer": null, "addr:full": null, "addr:city": null, "source": null, "name:ar": "كفر الدوار", "osm_id": 317997201, "osm_type": "nodes" }, "geometry": { "type": "Point", "coordinates": [ 30.1303561, 31.1323499 ] } },
{ "type": "Feature", "properties": { "name": "الجراولة", "name:en": "Garawla", "railway": "station", "ele": null, "operator:type": null, "layer": null, "addr:full": null, "addr:city": "الجراولة", "source": null, "name:ar": "الجراولة", "osm_id": 318020034, "osm_type": "nodes" }, "geometry": { "type": "Point", "coordinates": [ 27.394073, 31.2412578 ] } },
{ "type": "Feature", "properties": { "name": null, "name:en": null, "railway": "station", "ele": null, "operator:type": null, "layer": null, "addr:full": null, "addr:city": null, "source": null, "name:ar": null, "osm_id": 10543125749, "osm_type": "nodes" }, "geometry": { "type": "Point", "coordinates": [ 27.1270923, 31.2389915 ] } },
{ "type": "Feature", "properties": { "name": null, "name:en": null, "railway": "station", "ele": null, "operator:type": null, "layer": null, "addr:full": null, "addr:city": null, "source": null, "name:ar": null, "osm_id": 10543125715, "osm_type": "nodes" }, "geometry": { "type": "Point", "coordinates": [ 26.2745746, 31.2369319 ] } },
{ "type": "Feature", "properties": { "name": null, "name:en": null, "railway": "station", "ele": null, "operator:type": null, "layer": null, "addr:full": null, "addr:city": null, "source": null, "name:ar": null, "osm_id": 1038549399, "osm_type": "nodes" }, "geometry": { "type": "Point", "coordinates": [ 30.8964296, 31.0130595 ] } },
{ "type": "Feature", "properties": { "name": "الشين", "name:en": "Al Shin", "railway": "station", "ele": null, "operator:type": null, "layer": null, "addr:full": null, "addr:city": null, "source": null, "name:ar": "الشين", "osm_id": 768600995, "osm_type": "nodes" }, "geometry": { "type": "Point", "coordinates": [ 30.896944, 31.011944 ] } },
{ "type": "Feature", "properties": { "name": "قلين", "name:en": "Qallin", "railway": "station", "ele": null, "operator:type": null, "layer": null, "addr:full": null, "addr:city": "قلين", "source": null, "name:ar": null, "osm_id": 1039401955, "osm_type": "nodes" }, "geometry": { "type": "Point", "coordinates": [ 30.8403461, 31.0502025 ] } },
{ "type": "Feature", "properties": { "name": "طلخا", "name:en": "Talkha", "railway": "station", "ele": null, "operator:type": null, "layer": null, "addr:full": null, "addr:city": null, "source": null, "name:ar": "طلخا", "osm_id": 1019599326, "osm_type": "nodes" }, "geometry": { "type": "Point", "coordinates": [ 31.3782753, 31.0541641 ] } },
{ "type": "Feature", "properties": { "name": null, "name:en": null, "railway": "station", "ele": null, "operator:type": null, "layer": null, "addr:full": null, "addr:city": null, "source": null, "name:ar": null, "osm_id": 10598629255, "osm_type": "nodes" }, "geometry": { "type": "Point", "coordinates": [ 30.8346819, 31.0876876 ] } },
{ "type": "Feature", "properties": { "name": null, "name:en": null, "railway": "station", "ele": null, "operator:type": null, "layer": null, "addr:full": null, "addr:city": null, "source": null, "name:ar": null, "osm_id": 10598591200, "osm_type": "nodes" }, "geometry": { "type": "Point", "coordinates": [ 30.8996254, 31.0907966 ] } },
{ "type": "Feature", "properties": { "name": null, "name:en": null, "railway": "station", "ele": null, "operator:type": null, "layer": null, "addr:full": null, "addr:city": null, "source": null, "name:ar": null, "osm_id": 10598591181, "osm_type": "nodes" }, "geometry": { "type": "Point", "coordinates": [ 30.943595, 31.0889149 ] } },
{ "type": "Feature", "properties": { "name": null, "name:en": null, "railway": "station", "ele": null, "operator:type": null, "layer": null, "addr:full": null, "addr:city": null, "source": null, "name:ar": null, "osm_id": 10565076427, "osm_type": "nodes" }, "geometry": { "type": "Point", "coordinates": [ 30.7634786, 30.6623714 ] } },
{ "type": "Feature", "properties": { "name": null, "name:en": null, "railway": "station", "ele": null, "operator:type": null, "layer": null, "addr:full": null, "addr:city": null, "source": null, "name:ar": null, "osm_id": 10564843218, "osm_type": "nodes" }, "geometry": { "type": "Point", "coordinates": [ 30.555645, 30.7147613 ] } },
{ "type": "Feature", "properties": { "name": null, "name:en": null, "railway": "station", "ele": null, "operator:type": null, "layer": null, "addr:full": null, "addr:city": null, "source": null, "name:ar": null, "osm_id": 10565170881, "osm_type": "nodes" }, "geometry": { "type": "Point", "coordinates": [ 30.7389913, 30.6949318 ] } },
{ "type": "Feature", "properties": { "name": null, "name:en": null, "railway": "station", "ele": null, "operator:type": null, "layer": null, "addr:full": null, "addr:city": null, "source": null, "name:ar": null, "osm_id": 10564843235, "osm_type": "nodes" }, "geometry": { "type": "Point", "coordinates": [ 30.6892011, 30.6939421 ] } },
{ "type": "Feature", "properties": { "name": "الفيوم", "name:en": "Al-Fayoum", "railway": "station", "ele": null, "operator:type": null, "layer": null, "addr:full": null, "addr:city": null, "source": null, "name:ar": "الفيوم", "osm_id": 1022171353, "osm_type": "nodes" }, "geometry": { "type": "Point", "coordinates": [ 30.8477358, 29.3090635 ] } },
{ "type": "Feature", "properties": { "name": "ميت الكرما", "name:en": null, "railway": "station", "ele": null, "operator:type": null, "layer": null, "addr:full": null, "addr:city": null, "source": null, "name:ar": "ميت الكرما", "osm_id": 6487765591, "osm_type": "nodes" }, "geometry": { "type": "Point", "coordinates": [ 31.3305108, 31.0434775 ] } },
{ "type": "Feature", "properties": { "name": "كفر الشيخ", "name:en": "Kafr Al-Sheikh", "railway": "station", "ele": null, "operator:type": null, "layer": null, "addr:full": null, "addr:city": null, "source": null, "name:ar": "كفر الشيخ", "osm_id": 1024972031, "osm_type": "nodes" }, "geometry": { "type": "Point", "coordinates": [ 30.9391606, 31.1094593 ] } },
{ "type": "Feature", "properties": { "name": "دمنهور", "name:en": "Damanhur", "railway": "station", "ele": null, "operator:type": null, "layer": null, "addr:full": null, "addr:city": null, "source": null, "name:ar": "دمنهور", "osm_id": 1022251311, "osm_type": "nodes" }, "geometry": { "type": "Point", "coordinates": [ 30.4684692, 31.0342905 ] } },
{ "type": "Feature", "properties": { "name": null, "name:en": null, "railway": "station", "ele": null, "operator:type": null, "layer": null, "addr:full": null, "addr:city": null, "source": null, "name:ar": null, "osm_id": 10570217538, "osm_type": "nodes" }, "geometry": { "type": "Point", "coordinates": [ 31.0257366, 30.1690414 ] } },
{ "type": "Feature", "properties": { "name": "الباجور", "name:en": "Al-Bagur", "railway": "station", "ele": null, "operator:type": null, "layer": null, "addr:full": null, "addr:city": null, "source": null, "name:ar": "الباجور", "osm_id": 1090890989, "osm_type": "nodes" }, "geometry": { "type": "Point", "coordinates": [ 31.0371674, 30.4339709 ] } },
{ "type": "Feature", "properties": { "name": null, "name:en": null, "railway": "station", "ele": null, "operator:type": null, "layer": null, "addr:full": null, "addr:city": null, "source": null, "name:ar": null, "osm_id": 10685375901, "osm_type": "nodes" }, "geometry": { "type": "Point", "coordinates": [ 31.0294186, 29.3265134 ] } },
{ "type": "Feature", "properties": { "name": null, "name:en": null, "railway": "station", "ele": null, "operator:type": null, "layer": null, "addr:full": null, "addr:city": null, "source": null, "name:ar": null, "osm_id": 10576905431, "osm_type": "nodes" }, "geometry": { "type": "Point", "coordinates": [ 31.0341408, 30.2618011 ] } },
{ "type": "Feature", "properties": { "name": "المنصورة", "name:en": "Al-Mansura", "railway": "station", "ele": null, "operator:type": null, "layer": null, "addr:full": null, "addr:city": null, "source": null, "name:ar": "المنصورة", "osm_id": 1019565539, "osm_type": "nodes" }, "geometry": { "type": "Point", "coordinates": [ 31.3886258, 31.0454325 ] } },
{ "type": "Feature", "properties": { "name": null, "name:en": null, "railway": "station", "ele": null, "operator:type": null, "layer": null, "addr:full": null, "addr:city": null, "source": null, "name:ar": null, "osm_id": 10688353382, "osm_type": "nodes" }, "geometry": { "type": "Point", "coordinates": [ 30.8698561, 29.8815893 ] } },
{ "type": "Feature", "properties": { "name": "محطة شاوة", "name:en": "Mahattat Shawah", "railway": "station", "ele": null, "operator:type": null, "layer": null, "addr:full": null, "addr:city": null, "source": null, "name:ar": "محطة شاوة", "osm_id": 769128533, "osm_type": "nodes" }, "geometry": { "type": "Point", "coordinates": [ 31.4016627, 30.9992721 ] } },
{ "type": "Feature", "properties": { "name": null, "name:en": null, "railway": "station", "ele": null, "operator:type": null, "layer": null, "addr:full": null, "addr:city": null, "source": null, "name:ar": null, "osm_id": 10564809269, "osm_type": "nodes" }, "geometry": { "type": "Point", "coordinates": [ 30.4806756, 30.7390781 ] } },
{ "type": "Feature", "properties": { "name": null, "name:en": null, "railway": "station", "ele": null, "operator:type": null, "layer": null, "addr:full": null, "addr:city": null, "source": null, "name:ar": null, "osm_id": 6100702050, "osm_type": "nodes" }, "geometry": { "type": "Point", "coordinates": [ 29.5419954, 30.8557203 ] } },
{ "type": "Feature", "properties": { "name": null, "name:en": null, "railway": "station", "ele": null, "operator:type": null, "layer": null, "addr:full": null, "addr:city": null, "source": null, "name:ar": null, "osm_id": 10559550678, "osm_type": "nodes" }, "geometry": { "type": "Point", "coordinates": [ 29.7212507, 30.9768115 ] } },
{ "type": "Feature", "properties": { "name": "Ikingi Maryut", "name:en": null, "railway": "station", "ele": null, "operator:type": null, "layer": null, "addr:full": null, "addr:city": null, "source": null, "name:ar": null, "osm_id": 6497561530, "osm_type": "nodes" }, "geometry": { "type": "Point", "coordinates": [ 29.7645395, 30.9979606 ] } },
{ "type": "Feature", "properties": { "name": "محطة سيدى عبد الرحمن", "name:en": "Sidi Abdelrahman", "railway": "station", "ele": null, "operator:type": null, "layer": null, "addr:full": null, "addr:city": null, "source": null, "name:ar": "محطة سيدى عبد الرحمن", "osm_id": 768026921, "osm_type": "nodes" }, "geometry": { "type": "Point", "coordinates": [ 28.7227548, 30.9691877 ] } },
{ "type": "Feature", "properties": { "name": "العمائد", "name:en": "Al Amaid", "railway": "station", "ele": null, "operator:type": null, "layer": null, "addr:full": null, "addr:city": null, "source": null, "name:ar": "العمائد", "osm_id": 768577699, "osm_type": "nodes" }, "geometry": { "type": "Point", "coordinates": [ 29.1945681, 30.7895688 ] } },
{ "type": "Feature", "properties": { "name": null, "name:en": null, "railway": "station", "ele": null, "operator:type": null, "layer": null, "addr:full": null, "addr:city": null, "source": null, "name:ar": null, "osm_id": 4099047091, "osm_type": "nodes" }, "geometry": { "type": "Point", "coordinates": [ 29.3302033, 30.7694856 ] } },
{ "type": "Feature", "properties": { "name": "جبل الحمام", "name:en": "Gabel al Hammam", "railway": "station", "ele": null, "operator:type": null, "layer": null, "addr:full": null, "addr:city": null, "source": null, "name:ar": "جبل الحمام", "osm_id": 318015125, "osm_type": "nodes" }, "geometry": { "type": "Point", "coordinates": [ 29.4977651, 30.8800018 ] } },
{ "type": "Feature", "properties": { "name": null, "name:en": null, "railway": "station", "ele": null, "operator:type": null, "layer": null, "addr:full": null, "addr:city": null, "source": null, "name:ar": null, "osm_id": 6090804167, "osm_type": "nodes" }, "geometry": { "type": "Point", "coordinates": [ 29.5468889, 30.8241438 ] } },
{ "type": "Feature", "properties": { "name": null, "name:en": null, "railway": "station", "ele": null, "operator:type": null, "layer": null, "addr:full": null, "addr:city": null, "source": null, "name:ar": null, "osm_id": 2925632632, "osm_type": "nodes" }, "geometry": { "type": "Point", "coordinates": [ 29.3894904, 30.8393149 ] } },
{ "type": "Feature", "properties": { "name": "محطة الرؤيسات", "name:en": "Mahattat al Ruaysat", "railway": "station", "ele": null, "operator:type": null, "layer": null, "addr:full": null, "addr:city": null, "source": null, "name:ar": "محطة الرؤيسات", "osm_id": 1540997074, "osm_type": "nodes" }, "geometry": { "type": "Point", "coordinates": [ 29.3163908, 30.812337 ] } },
{ "type": "Feature", "properties": { "name": "قرية بهيج", "name:en": null, "railway": "station", "ele": null, "operator:type": null, "layer": null, "addr:full": null, "addr:city": null, "source": null, "name:ar": "قرية بهيج", "osm_id": 6102322694, "osm_type": "nodes" }, "geometry": { "type": "Point", "coordinates": [ 29.595433, 30.9215106 ] } },
{ "type": "Feature", "properties": { "name": "بني سويف", "name:en": "Beni Suef", "railway": "station", "ele": null, "operator:type": null, "layer": null, "addr:full": null, "addr:city": null, "source": null, "name:ar": "بني سويف", "osm_id": 520515246, "osm_type": "nodes" }, "geometry": { "type": "Point", "coordinates": [ 31.0947833, 29.0762716 ] } },
{ "type": "Feature", "properties": { "name": null, "name:en": null, "railway": "station", "ele": null, "operator:type": null, "layer": null, "addr:full": null, "addr:city": null, "source": null, "name:ar": null, "osm_id": 10598550524, "osm_type": "nodes" }, "geometry": { "type": "Point", "coordinates": [ 31.0015821, 31.1575886 ] } },
{ "type": "Feature", "properties": { "name": "كوم الطويل", "name:en": "Kom al Tawil", "railway": "station", "ele": null, "operator:type": null, "layer": null, "addr:full": null, "addr:city": null, "source": null, "name:ar": "كوم الطويل", "osm_id": 768579929, "osm_type": "nodes" }, "geometry": { "type": "Point", "coordinates": [ 31.0891559, 31.1978437 ] } },
{ "type": "Feature", "properties": { "name": null, "name:en": null, "railway": "station", "ele": null, "operator:type": null, "layer": null, "addr:full": null, "addr:city": null, "source": null, "name:ar": null, "osm_id": 10600956382, "osm_type": "nodes" }, "geometry": { "type": "Point", "coordinates": [ 30.6345558, 31.275776 ] } },
{ "type": "Feature", "properties": { "name": "محطة أبو غالب", "name:en": "Mahattat Abu Ghalib", "railway": "station", "ele": null, "operator:type": null, "layer": null, "addr:full": null, "addr:city": null, "source": null, "name:ar": "محطة أبو غالب", "osm_id": 768550630, "osm_type": "nodes" }, "geometry": { "type": "Point", "coordinates": [ 30.9076178, 30.2734433 ] } },
{ "type": "Feature", "properties": { "name": "الخطاطبة", "name:en": "Al-Khatatba", "railway": "station", "ele": null, "operator:type": null, "layer": null, "addr:full": null, "addr:city": null, "source": null, "name:ar": "الخطاطبة", "osm_id": 1040778821, "osm_type": "nodes" }, "geometry": { "type": "Point", "coordinates": [ 30.8184572, 30.3579232 ] } },
{ "type": "Feature", "properties": { "name": null, "name:en": null, "railway": "station", "ele": null, "operator:type": null, "layer": null, "addr:full": null, "addr:city": null, "source": null, "name:ar": null, "osm_id": 10567211879, "osm_type": "nodes" }, "geometry": { "type": "Point", "coordinates": [ 30.8268333, 30.4266333 ] } },
{ "type": "Feature", "properties": { "name": null, "name:en": null, "railway": "station", "ele": null, "operator:type": null, "layer": null, "addr:full": null, "addr:city": null, "source": null, "name:ar": null, "osm_id": 10567093678, "osm_type": "nodes" }, "geometry": { "type": "Point", "coordinates": [ 30.814218, 30.4965395 ] } },
{ "type": "Feature", "properties": { "name": null, "name:en": null, "railway": "station", "ele": null, "operator:type": null, "layer": null, "addr:full": null, "addr:city": null, "source": null, "name:ar": null, "osm_id": 10567179352, "osm_type": "nodes" }, "geometry": { "type": "Point", "coordinates": [ 30.8236618, 30.4630056 ] } },
{ "type": "Feature", "properties": { "name": null, "name:en": null, "railway": "station", "ele": null, "operator:type": null, "layer": null, "addr:full": null, "addr:city": null, "source": null, "name:ar": null, "osm_id": 10599263034, "osm_type": "nodes" }, "geometry": { "type": "Point", "coordinates": [ 30.5518365, 31.0694343 ] } },
{ "type": "Feature", "properties": { "name": null, "name:en": null, "railway": "station", "ele": null, "operator:type": null, "layer": null, "addr:full": null, "addr:city": null, "source": null, "name:ar": null, "osm_id": 10600864184, "osm_type": "nodes" }, "geometry": { "type": "Point", "coordinates": [ 30.6222673, 31.1615144 ] } },
{ "type": "Feature", "properties": { "name": "الطابية", "name:en": "El-Tabyah", "railway": "station", "ele": null, "operator:type": null, "layer": null, "addr:full": null, "addr:city": null, "source": null, "name:ar": null, "osm_id": 10601354357, "osm_type": "nodes" }, "geometry": { "type": "Point", "coordinates": [ 30.0826555, 31.2798501 ] } },
{ "type": "Feature", "properties": { "name": "رشيد", "name:en": "Rosetta", "railway": "station", "ele": null, "operator:type": null, "layer": null, "addr:full": null, "addr:city": null, "source": null, "name:ar": "رشيد", "osm_id": 1039369482, "osm_type": "nodes" }, "geometry": { "type": "Point", "coordinates": [ 30.4193478, 31.4083114 ] } },
{ "type": "Feature", "properties": { "name": "إدكو", "name:en": "Idku", "railway": "station", "ele": null, "operator:type": null, "layer": null, "addr:full": null, "addr:city": null, "source": null, "name:ar": "إدكو", "osm_id": 1039369281, "osm_type": "nodes" }, "geometry": { "type": "Point", "coordinates": [ 30.3036688, 31.2983653 ] } },
{ "type": "Feature", "properties": { "name": "محطة البصيلي", "name:en": "Al Busayit", "railway": "station", "ele": null, "operator:type": null, "layer": null, "addr:full": null, "addr:city": null, "source": null, "name:ar": "محطة البصيلي", "osm_id": 1039369509, "osm_type": "nodes" }, "geometry": { "type": "Point", "coordinates": [ 30.4033021, 31.3321431 ] } },
{ "type": "Feature", "properties": { "name": null, "name:en": null, "railway": "station", "ele": null, "operator:type": null, "layer": null, "addr:full": null, "addr:city": null, "source": null, "name:ar": null, "osm_id": 10596062401, "osm_type": "nodes" }, "geometry": { "type": "Point", "coordinates": [ 31.2275414, 31.1754785 ] } },
{ "type": "Feature", "properties": { "name": "محطة سيدي بشر", "name:en": "Sidi Beshr", "railway": "station", "ele": null, "operator:type": null, "layer": null, "addr:full": null, "addr:city": null, "source": null, "name:ar": "سيدي بشر", "osm_id": 339078708, "osm_type": "nodes" }, "geometry": { "type": "Point", "coordinates": [ 29.9940489, 31.2570693 ] } },
{ "type": "Feature", "properties": { "name": "مطوبس", "name:en": "Mutubis", "railway": "station", "ele": null, "operator:type": null, "layer": null, "addr:full": null, "addr:city": null, "source": null, "name:ar": "مطوبس", "osm_id": 1039391155, "osm_type": "nodes" }, "geometry": { "type": "Point", "coordinates": [ 30.525038, 31.2868746 ] } },
{ "type": "Feature", "properties": { "name": "القصابي", "name:en": "Al-Qasabi", "railway": "station", "ele": null, "operator:type": null, "layer": null, "addr:full": null, "addr:city": null, "source": null, "name:ar": "القصابي", "osm_id": 1039391169, "osm_type": "nodes" }, "geometry": { "type": "Point", "coordinates": [ 30.6791785, 31.2642244 ] } },
{ "type": "Feature", "properties": { "name": null, "name:en": null, "railway": "station", "ele": null, "operator:type": null, "layer": null, "addr:full": null, "addr:city": null, "source": null, "name:ar": null, "osm_id": 2120516646, "osm_type": "nodes" }, "geometry": { "type": "Point", "coordinates": [ 31.0542619, 31.206995 ] } },
{ "type": "Feature", "properties": { "name": "بلقاس", "name:en": "Bilqas", "railway": "station", "ele": null, "operator:type": null, "layer": null, "addr:full": null, "addr:city": null, "source": null, "name:ar": "بلقاس", "osm_id": 1040811607, "osm_type": "nodes" }, "geometry": { "type": "Point", "coordinates": [ 31.3554408, 31.2087203 ] } },
{ "type": "Feature", "properties": { "name": "الوردين", "name:en": "Al Wardian", "railway": "station", "ele": null, "operator:type": null, "layer": null, "addr:full": null, "addr:city": null, "source": null, "name:ar": "الوردين", "osm_id": 768550706, "osm_type": "nodes" }, "geometry": { "type": "Point", "coordinates": [ 30.8834703, 30.2913324 ] } },
{ "type": "Feature", "properties": { "name": "Damrais train station", "name:en": null, "railway": "station", "ele": null, "operator:type": null, "layer": null, "addr:full": null, "addr:city": null, "source": null, "name:ar": null, "osm_id": 1156216297, "osm_type": "nodes" }, "geometry": { "type": "Point", "coordinates": [ 30.7417131, 28.12522 ] } },
{ "type": "Feature", "properties": { "name": "كوم حمادة", "name:en": "Kom Hamada", "railway": "station", "ele": null, "operator:type": null, "layer": null, "addr:full": null, "addr:city": null, "source": null, "name:ar": "كوم حمادة", "osm_id": 1040778845, "osm_type": "nodes" }, "geometry": { "type": "Point", "coordinates": [ 30.697802, 30.7593783 ] } },
{ "type": "Feature", "properties": { "name": "الطرح", "name:en": "El-Tarh", "railway": "station", "ele": null, "operator:type": null, "layer": null, "addr:full": null, "addr:city": null, "source": null, "name:ar": null, "osm_id": 768567334, "osm_type": "nodes" }, "geometry": { "type": "Point", "coordinates": [ 30.1262299, 31.2675627 ] } },
{ "type": "Feature", "properties": { "name": "منشية سلطان", "name:en": "Manshiyet Sultan", "railway": "station", "ele": null, "operator:type": null, "layer": null, "addr:full": null, "addr:city": null, "source": null, "name:ar": "منشية سلطان", "osm_id": 768095266, "osm_type": "nodes" }, "geometry": { "type": "Point", "coordinates": [ 30.9177968, 30.5297534 ] } },
{ "type": "Feature", "properties": { "name": null, "name:en": null, "railway": "station", "ele": null, "operator:type": null, "layer": null, "addr:full": null, "addr:city": null, "source": null, "name:ar": null, "osm_id": 10565170844, "osm_type": "nodes" }, "geometry": { "type": "Point", "coordinates": [ 30.7147887, 30.7270801 ] } },
{ "type": "Feature", "properties": { "name": "تلا", "name:en": "Tala", "railway": "station", "ele": null, "operator:type": null, "layer": null, "addr:full": null, "addr:city": null, "source": null, "name:ar": "تلا", "osm_id": 1039343019, "osm_type": "nodes" }, "geometry": { "type": "Point", "coordinates": [ 30.9448938, 30.6778733 ] } },
{ "type": "Feature", "properties": { "name": "إيتاي البارود", "name:en": "Ityai Al-Barud", "railway": "station", "ele": null, "operator:type": null, "layer": null, "addr:full": null, "addr:city": null, "source": null, "name:ar": "إتاي البارود", "osm_id": 1040778959, "osm_type": "nodes" }, "geometry": { "type": "Point", "coordinates": [ 30.6618086, 30.8841951 ] } },
{ "type": "Feature", "properties": { "name": "محطة قطار طنطا", "name:en": "Tanta", "railway": "station", "ele": null, "operator:type": null, "layer": null, "addr:full": null, "addr:city": null, "source": null, "name:ar": "محطة قطار طنطا", "osm_id": 4723141800, "osm_type": "nodes" }, "geometry": { "type": "Point", "coordinates": [ 30.9942113, 30.7813342 ] } },
{ "type": "Feature", "properties": { "name": null, "name:en": null, "railway": "station", "ele": null, "operator:type": null, "layer": null, "addr:full": null, "addr:city": null, "source": null, "name:ar": null, "osm_id": 6132848326, "osm_type": "nodes" }, "geometry": { "type": "Point", "coordinates": [ 29.8509814, 31.1519496 ] } },
{ "type": "Feature", "properties": { "name": "Station", "name:en": null, "railway": "station", "ele": null, "operator:type": null, "layer": null, "addr:full": null, "addr:city": null, "source": null, "name:ar": null, "osm_id": 6497561537, "osm_type": "nodes" }, "geometry": { "type": "Point", "coordinates": [ 29.7983194, 31.0182579 ] } },
{ "type": "Feature", "properties": { "name": "فوكة", "name:en": "Fukah", "railway": "station", "ele": null, "operator:type": null, "layer": null, "addr:full": null, "addr:city": null, "source": null, "name:ar": "فوكة", "osm_id": 768599168, "osm_type": "nodes" }, "geometry": { "type": "Point", "coordinates": [ 27.9171619, 31.067756 ] } },
{ "type": "Feature", "properties": { "name": "الضبعه", "name:en": "Al-Dabaah", "railway": "station", "ele": null, "operator:type": null, "layer": null, "addr:full": null, "addr:city": null, "source": null, "name:ar": "الضبعه", "osm_id": 1154166993, "osm_type": "nodes" }, "geometry": { "type": "Point", "coordinates": [ 28.4442506, 31.0276366 ] } },
{ "type": "Feature", "properties": { "name": null, "name:en": null, "railway": "station", "ele": null, "operator:type": null, "layer": null, "addr:full": null, "addr:city": null, "source": null, "name:ar": null, "osm_id": 10543116099, "osm_type": "nodes" }, "geometry": { "type": "Point", "coordinates": [ 25.9043627, 31.1994034 ] } },
{ "type": "Feature", "properties": { "name": null, "name:en": null, "railway": "station", "ele": null, "operator:type": null, "layer": null, "addr:full": null, "addr:city": null, "source": null, "name:ar": null, "osm_id": 10559574169, "osm_type": "nodes" }, "geometry": { "type": "Point", "coordinates": [ 29.8483896, 31.0617862 ] } },
{ "type": "Feature", "properties": { "name": null, "name:en": null, "railway": "station", "ele": null, "operator:type": null, "layer": null, "addr:full": null, "addr:city": null, "source": null, "name:ar": null, "osm_id": 10685533579, "osm_type": "nodes" }, "geometry": { "type": "Point", "coordinates": [ 31.1424325, 29.3326791 ] } },
{ "type": "Feature", "properties": { "name": null, "name:en": null, "railway": "station", "ele": null, "operator:type": null, "layer": null, "addr:full": null, "addr:city": null, "source": null, "name:ar": null, "osm_id": 10561868361, "osm_type": "nodes" }, "geometry": { "type": "Point", "coordinates": [ 29.9501088, 30.928817 ] } },
{ "type": "Feature", "properties": { "name": "محطة الرمل الميري", "name:en": null, "railway": "station", "ele": null, "operator:type": null, "layer": null, "addr:full": null, "addr:city": null, "source": null, "name:ar": "محطة الرمل الميري", "osm_id": 3874891889, "osm_type": "nodes" }, "geometry": { "type": "Point", "coordinates": [ 29.9767735, 31.242995 ] } },
{ "type": "Feature", "properties": { "name": null, "name:en": null, "railway": "station", "ele": null, "operator:type": null, "layer": null, "addr:full": null, "addr:city": null, "source": null, "name:ar": null, "osm_id": 10549021787, "osm_type": "nodes" }, "geometry": { "type": "Point", "coordinates": [ 28.5997444, 30.9858475 ] } },
{ "type": "Feature", "properties": { "name": "محطة محرم بيك", "name:en": "Moharram Bey", "railway": "station", "ele": null, "operator:type": null, "layer": null, "addr:full": null, "addr:city": null, "source": null, "name:ar": "محطة محرم بيك", "osm_id": 1111472626, "osm_type": "nodes" }, "geometry": { "type": "Point", "coordinates": [ 29.9261461, 31.1860896 ] } },
{ "type": "Feature", "properties": { "name": "محلة أبو علي", "name:en": null, "railway": "station", "ele": null, "operator:type": null, "layer": null, "addr:full": null, "addr:city": null, "source": null, "name:ar": "محلة أبو علي", "osm_id": 6487765585, "osm_type": "nodes" }, "geometry": { "type": "Point", "coordinates": [ 31.1935985, 30.968415 ] } },
{ "type": "Feature", "properties": { "name": "الحضرة", "name:en": "Al-Hadra", "railway": "station", "ele": null, "operator:type": null, "layer": null, "addr:full": null, "addr:city": null, "source": null, "name:ar": "الحضرة", "osm_id": 269662884, "osm_type": "nodes" }, "geometry": { "type": "Point", "coordinates": [ 29.9299316, 31.204076 ] } },
{ "type": "Feature", "properties": { "name": null, "name:en": null, "railway": "station", "ele": null, "operator:type": null, "layer": null, "addr:full": null, "addr:city": null, "source": null, "name:ar": null, "osm_id": 10561868393, "osm_type": "nodes" }, "geometry": { "type": "Point", "coordinates": [ 30.0688113, 30.8585871 ] } },
{ "type": "Feature", "properties": { "name": "الواسطة", "name:en": "Al-Wasitah", "railway": "station", "ele": null, "operator:type": null, "layer": null, "addr:full": null, "addr:city": null, "source": null, "name:ar": "الوسطى", "osm_id": 520515418, "osm_type": "nodes" }, "geometry": { "type": "Point", "coordinates": [ 31.2043464, 29.3369651 ] } },
{ "type": "Feature", "properties": { "name": null, "name:en": null, "railway": "station", "ele": null, "operator:type": null, "layer": null, "addr:full": null, "addr:city": null, "source": null, "name:ar": null, "osm_id": 10561901794, "osm_type": "nodes" }, "geometry": { "type": "Point", "coordinates": [ 30.1758964, 30.7905952 ] } },
{ "type": "Feature", "properties": { "name": "مغاغة", "name:en": "Maghagheh", "railway": "station", "ele": null, "operator:type": null, "layer": null, "addr:full": null, "addr:city": null, "source": null, "name:ar": "مغاغة", "osm_id": 520514974, "osm_type": "nodes" }, "geometry": { "type": "Point", "coordinates": [ 30.8385764, 28.6495512 ] } },
{ "type": "Feature", "properties": { "name": "جلال", "name:en": "Jalal", "railway": "station", "ele": null, "operator:type": null, "layer": null, "addr:full": null, "addr:city": null, "source": null, "name:ar": "جلال", "osm_id": 768026317, "osm_type": "nodes" }, "geometry": { "type": "Point", "coordinates": [ 28.1813226, 31.03556 ] } },
{ "type": "Feature", "properties": { "name": "فاضل الباشا", "name:en": "Fadal Pasha", "railway": "station", "ele": null, "operator:type": null, "layer": null, "addr:full": null, "addr:city": null, "source": null, "name:ar": "فاضل الباشا", "osm_id": 769129657, "osm_type": "nodes" }, "geometry": { "type": "Point", "coordinates": [ 30.4, 31.0 ] } },
{ "type": "Feature", "properties": { "name": "بئر حباطة", "name:en": "Bir Habata", "railway": "station", "ele": null, "operator:type": null, "layer": null, "addr:full": null, "addr:city": null, "source": null, "name:ar": "بئر حباطة", "osm_id": 6013162698, "osm_type": "nodes" }, "geometry": { "type": "Point", "coordinates": [ 25.516431, 31.154618 ] } },
{ "type": "Feature", "properties": { "name": "أبو حجاج", "name:en": "Abu Hajjaj", "railway": "station", "ele": null, "operator:type": null, "layer": null, "addr:full": null, "addr:city": null, "source": null, "name:ar": "أبو حجاج", "osm_id": 2726633654, "osm_type": "nodes" }, "geometry": { "type": "Point", "coordinates": [ 27.8339051, 31.1313084 ] } },
{ "type": "Feature", "properties": { "name": "محطة سيدي حنيش", "name:en": "Sidi Haneish Station", "railway": "station", "ele": null, "operator:type": null, "layer": null, "addr:full": null, "addr:city": null, "source": null, "name:ar": "محطة سيدي حنيش", "osm_id": 1541494459, "osm_type": "nodes" }, "geometry": { "type": "Point", "coordinates": [ 27.6285119, 31.1633788 ] } },
{ "type": "Feature", "properties": { "name": "أبو حمص", "name:en": "Abu Hummus", "railway": "station", "ele": null, "operator:type": null, "layer": null, "addr:full": null, "addr:city": null, "source": null, "name:ar": "1", "osm_id": 1111472625, "osm_type": "nodes" }, "geometry": { "type": "Point", "coordinates": [ 30.3097319, 31.0849085 ] } },
{ "type": "Feature", "properties": { "name": "محطة مصر", "name:en": "Masr station", "railway": "station", "ele": null, "operator:type": null, "layer": null, "addr:full": null, "addr:city": null, "source": null, "name:ar": "محطة مصر", "osm_id": 1125997846, "osm_type": "nodes" }, "geometry": { "type": "Point", "coordinates": [ 29.9067595, 31.193363 ] } },
{ "type": "Feature", "properties": { "name": null, "name:en": null, "railway": "station", "ele": null, "operator:type": null, "layer": null, "addr:full": null, "addr:city": null, "source": null, "name:ar": null, "osm_id": 10596082420, "osm_type": "nodes" }, "geometry": { "type": "Point", "coordinates": [ 31.1634238, 31.1701579 ] } },
{ "type": "Feature", "properties": { "name": "فوة", "name:en": "Fuwah", "railway": "station", "ele": null, "operator:type": null, "layer": null, "addr:full": null, "addr:city": null, "source": null, "name:ar": "فوة", "osm_id": 1039398638, "osm_type": "nodes" }, "geometry": { "type": "Point", "coordinates": [ 30.5529273, 31.2099415 ] } },
{ "type": "Feature", "properties": { "name": "الراهبين", "name:en": null, "railway": "station", "ele": null, "operator:type": null, "layer": null, "addr:full": null, "addr:city": null, "source": null, "name:ar": "الراهبين", "osm_id": 6487765586, "osm_type": "nodes" }, "geometry": { "type": "Point", "coordinates": [ 31.2153919, 30.9662273 ] } },
{ "type": "Feature", "properties": { "name": "بنى مزار", "name:en": "Beni Mazar", "railway": "station", "ele": null, "operator:type": null, "layer": null, "addr:full": null, "addr:city": null, "source": null, "name:ar": "بنى مزار", "osm_id": 1060253795, "osm_type": "nodes" }, "geometry": { "type": "Point", "coordinates": [ 30.8063817, 28.4951264 ] } },
{ "type": "Feature", "properties": { "name": "المنطقة الصناعية", "name:en": "Industrial Park", "railway": "station", "ele": null, "operator:type": null, "layer": null, "addr:full": null, "addr:city": null, "source": null, "name:ar": "المنطقة الصناعية", "osm_id": 9885252617, "osm_type": "nodes" }, "geometry": { "type": "Point", "coordinates": [ 31.7155954, 30.2039612 ] } },
{ "type": "Feature", "properties": { "name": null, "name:en": null, "railway": "station", "ele": null, "operator:type": null, "layer": null, "addr:full": null, "addr:city": null, "source": null, "name:ar": null, "osm_id": 10599214594, "osm_type": "nodes" }, "geometry": { "type": "Point", "coordinates": [ 30.6274959, 31.1264911 ] } },
{ "type": "Feature", "properties": { "name": "الدابة", "name:en": "Al Dabba", "railway": "station", "ele": null, "operator:type": null, "layer": null, "addr:full": null, "addr:city": null, "source": null, "name:ar": "الدابة", "osm_id": 768583365, "osm_type": "nodes" }, "geometry": { "type": "Point", "coordinates": [ 32.2928535, 26.0721448 ] } },
{ "type": "Feature", "properties": { "name": "Air Mall", "name:en": null, "railway": "station", "ele": null, "operator:type": null, "layer": null, "addr:full": null, "addr:city": null, "source": null, "name:ar": null, "osm_id": 7984340765, "osm_type": "nodes" }, "geometry": { "type": "Point", "coordinates": [ 31.4030778, 30.1248681 ] } },
{ "type": "Feature", "properties": { "name": "قوص", "name:en": "Qus", "railway": "station", "ele": null, "operator:type": null, "layer": null, "addr:full": null, "addr:city": null, "source": null, "name:ar": "قوص", "osm_id": 1540484292, "osm_type": "nodes" }, "geometry": { "type": "Point", "coordinates": [ 32.7585718, 25.9153578 ] } },
{ "type": "Feature", "properties": { "name": "قنا", "name:en": "Qena", "railway": "station", "ele": null, "operator:type": null, "layer": null, "addr:full": null, "addr:city": null, "source": null, "name:ar": "قنا", "osm_id": 520513717, "osm_type": "nodes" }, "geometry": { "type": "Point", "coordinates": [ 32.7271236, 26.1625853 ] } },
{ "type": "Feature", "properties": { "name": "شبين الكوم", "name:en": "Shibin Al-Kom", "railway": "station", "ele": null, "operator:type": null, "layer": null, "addr:full": null, "addr:city": null, "source": null, "name:ar": "شبين الكوم", "osm_id": 1024943367, "osm_type": "nodes" }, "geometry": { "type": "Point", "coordinates": [ 31.0048963, 30.5533515 ] } },
{ "type": "Feature", "properties": { "name": null, "name:en": null, "railway": "station", "ele": null, "operator:type": null, "layer": null, "addr:full": null, "addr:city": null, "source": null, "name:ar": null, "osm_id": 10576295355, "osm_type": "nodes" }, "geometry": { "type": "Point", "coordinates": [ 31.0054261, 30.5046907 ] } },
{ "type": "Feature", "properties": { "name": "المرج الجديدة", "name:en": "New El-Marg", "railway": "station", "ele": null, "operator:type": null, "layer": null, "addr:full": null, "addr:city": null, "source": null, "name:ar": "المرج الجديدة", "osm_id": 5353444300, "osm_type": "nodes" }, "geometry": { "type": "Point", "coordinates": [ 31.338272, 30.1635097 ] } },
{ "type": "Feature", "properties": { "name": "مرسى مطروح", "name:en": "Marsa Matruh", "railway": "station", "ele": null, "operator:type": null, "layer": null, "addr:full": null, "addr:city": "مرسى مطروح", "source": null, "name:ar": "مرسى مطروح", "osm_id": 1889476237, "osm_type": "nodes" }, "geometry": { "type": "Point", "coordinates": [ 27.2443664, 31.3485785 ] } },
{ "type": "Feature", "properties": { "name": "محطة أولاد عمر", "name:en": "Mahattat Awlad Amr", "railway": "station", "ele": null, "operator:type": null, "layer": null, "addr:full": null, "addr:city": null, "source": null, "name:ar": "محطة أولاد عمر", "osm_id": 2723584164, "osm_type": "nodes" }, "geometry": { "type": "Point", "coordinates": [ 32.5878808, 26.1606338 ] } },
{ "type": "Feature", "properties": { "name": "محطة القرش", "name:en": "Mahattat al Qirsh", "railway": "station", "ele": null, "operator:type": null, "layer": null, "addr:full": null, "addr:city": null, "source": null, "name:ar": "محطة القرش", "osm_id": 1126060881, "osm_type": "nodes" }, "geometry": { "type": "Point", "coordinates": [ 32.2978702, 30.6012748 ] } },
{ "type": "Feature", "properties": { "name": "المنيب", "name:en": "Al-Mounib", "railway": "station", "ele": null, "operator:type": null, "layer": null, "addr:full": null, "addr:city": null, "source": null, "name:ar": "المنيب", "osm_id": 9160333614, "osm_type": "nodes" }, "geometry": { "type": "Point", "coordinates": [ 31.2119674, 29.9811369 ] } },
{ "type": "Feature", "properties": { "name": "أسيوط", "name:en": "Asyut", "railway": "station", "ele": null, "operator:type": null, "layer": null, "addr:full": null, "addr:city": "أسيوط", "source": null, "name:ar": "أسيوط", "osm_id": 520514464, "osm_type": "nodes" }, "geometry": { "type": "Point", "coordinates": [ 31.1881884, 27.1803762 ] } },
{ "type": "Feature", "properties": { "name": "محطة إشنين", "name:en": "Ishnin Halt", "railway": "station", "ele": null, "operator:type": null, "layer": null, "addr:full": null, "addr:city": null, "source": null, "name:ar": "محطة إشنين", "osm_id": 768585071, "osm_type": "nodes" }, "geometry": { "type": "Point", "coordinates": [ 30.8245832, 28.6137699 ] } },
{ "type": "Feature", "properties": { "name": "محطة وادي السيل", "name:en": "Mahattat Wadi al Sayl", "railway": "station", "ele": null, "operator:type": null, "layer": null, "addr:full": null, "addr:city": null, "source": null, "name:ar": "محطة وادي السيل", "osm_id": 768766275, "osm_type": "nodes" }, "geometry": { "type": "Point", "coordinates": [ 31.8997634, 30.1630426 ] } },
{ "type": "Feature", "properties": { "name": "محطة فاو", "name:en": "Faw Station", "railway": "station", "ele": null, "operator:type": null, "layer": null, "addr:full": null, "addr:city": null, "source": null, "name:ar": "محطة فاو", "osm_id": 520513134, "osm_type": "nodes" }, "geometry": { "type": "Point", "coordinates": [ 32.4120068, 26.1011067 ] } },
{ "type": "Feature", "properties": { "name": "دشنا", "name:en": null, "railway": "station", "ele": null, "operator:type": null, "layer": null, "addr:full": null, "addr:city": null, "source": null, "name:ar": "دشنا", "osm_id": 2723571740, "osm_type": "nodes" }, "geometry": { "type": "Point", "coordinates": [ 32.4616661, 26.1233268 ] } },
{ "type": "Feature", "properties": { "name": "كوتسكا", "name:en": "Kozzika", "railway": "station", "ele": null, "operator:type": null, "layer": null, "addr:full": null, "addr:city": null, "source": null, "name:ar": "كوتسكا", "osm_id": 316638613, "osm_type": "nodes" }, "geometry": { "type": "Point", "coordinates": [ 31.2817387, 29.9361647 ] } },
{ "type": "Feature", "properties": { "name": "طما", "name:en": "Tima", "railway": "station", "ele": null, "operator:type": null, "layer": null, "addr:full": null, "addr:city": null, "source": null, "name:ar": "طما", "osm_id": 1049682510, "osm_type": "nodes" }, "geometry": { "type": "Point", "coordinates": [ 31.4320112, 26.9048996 ] } },
{ "type": "Feature", "properties": { "name": null, "name:en": null, "railway": "station", "ele": null, "operator:type": null, "layer": null, "addr:full": null, "addr:city": null, "source": null, "name:ar": null, "osm_id": 318020042, "osm_type": "nodes" }, "geometry": { "type": "Point", "coordinates": [ 27.3326036, 31.2935726 ] } },
{ "type": "Feature", "properties": { "name": "حمامات القبة", "name:en": "Hammamat Al-Qobba", "railway": "station", "ele": null, "operator:type": null, "layer": null, "addr:full": null, "addr:city": null, "source": null, "name:ar": "حمامات القبة", "osm_id": 5349031075, "osm_type": "nodes" }, "geometry": { "type": "Point", "coordinates": [ 31.2981109, 30.0903392 ] } },
{ "type": "Feature", "properties": { "name": "أراد", "name:en": null, "railway": "station", "ele": null, "operator:type": null, "layer": null, "addr:full": null, "addr:city": null, "source": null, "name:ar": "أراد", "osm_id": 2319635997, "osm_type": "nodes" }, "geometry": { "type": "Point", "coordinates": [ 25.1808287, 31.3381021 ] } },
{ "type": "Feature", "properties": { "name": "السلوم", "name:en": "Al Sallum", "railway": "station", "ele": null, "operator:type": null, "layer": null, "addr:full": null, "addr:city": null, "source": null, "name:ar": "السلوم", "osm_id": 1098334301, "osm_type": "nodes" }, "geometry": { "type": "Point", "coordinates": [ 25.1460704, 31.5723799 ] } },
{ "type": "Feature", "properties": { "name": "المستقبل", "name:en": "Future", "railway": "station", "ele": null, "operator:type": null, "layer": null, "addr:full": null, "addr:city": null, "source": null, "name:ar": null, "osm_id": 9885252628, "osm_type": "nodes" }, "geometry": { "type": "Point", "coordinates": [ 31.5541345, 30.1730854 ] } },
{ "type": "Feature", "properties": { "name": "محطة الصوامعة", "name:en": "Mahattat al Sawamiah", "railway": "station", "ele": null, "operator:type": null, "layer": null, "addr:full": null, "addr:city": null, "source": null, "name:ar": "محطة الصوامعة", "osm_id": 768757269, "osm_type": "nodes" }, "geometry": { "type": "Point", "coordinates": [ 31.533333, 26.733333 ] } },
{ "type": "Feature", "properties": { "name": "سوهاج", "name:en": "Sohag", "railway": "station", "ele": null, "operator:type": null, "layer": null, "addr:full": null, "addr:city": null, "source": null, "name:ar": "سوهاج", "osm_id": 3605745438, "osm_type": "nodes" }, "geometry": { "type": "Point", "coordinates": [ 31.699088, 26.551439 ] } },
{ "type": "Feature", "properties": { "name": "قفـط", "name:en": null, "railway": "station", "ele": null, "operator:type": null, "layer": null, "addr:full": null, "addr:city": null, "source": null, "name:ar": "قفـط", "osm_id": 2723654248, "osm_type": "nodes" }, "geometry": { "type": "Point", "coordinates": [ 32.8008886, 25.9944865 ] } },
{ "type": "Feature", "properties": { "name": "المريس", "name:en": "Al Maris Junction Cabin", "railway": "station", "ele": null, "operator:type": null, "layer": null, "addr:full": null, "addr:city": null, "source": null, "name:ar": "المريس", "osm_id": 768736618, "osm_type": "nodes" }, "geometry": { "type": "Point", "coordinates": [ 32.566667, 25.6500046 ] } },
{ "type": "Feature", "properties": { "name": "Farshot Station", "name:en": "Farshot Station", "railway": "station", "ele": null, "operator:type": null, "layer": null, "addr:full": null, "addr:city": null, "source": null, "name:ar": null, "osm_id": 6567914726, "osm_type": "nodes" }, "geometry": { "type": "Point", "coordinates": [ 32.1663329, 26.0578898 ] } },
{ "type": "Feature", "properties": { "name": "حلوان", "name:en": "Helwan", "railway": "station", "ele": null, "operator:type": null, "layer": null, "addr:full": null, "addr:city": null, "source": null, "name:ar": "حلوان", "osm_id": 316636980, "osm_type": "nodes" }, "geometry": { "type": "Point", "coordinates": [ 31.3342033, 29.8488841 ] } },
{ "type": "Feature", "properties": { "name": "الشروق", "name:en": "El-Shorouk", "railway": "station", "ele": null, "operator:type": null, "layer": null, "addr:full": null, "addr:city": null, "source": null, "name:ar": null, "osm_id": 9885252631, "osm_type": "nodes" }, "geometry": { "type": "Point", "coordinates": [ 31.6057965, 30.1796323 ] } },
{ "type": "Feature", "properties": { "name": "Knowledge City - LRT Station", "name:en": "Knowledge City - LRT Station", "railway": "station", "ele": null, "operator:type": null, "layer": null, "addr:full": null, "addr:city": null, "source": null, "name:ar": "محطة القطار الكهربائي الخفيف - مدينة المعارف", "osm_id": 9885252618, "osm_type": "nodes" }, "geometry": { "type": "Point", "coordinates": [ 31.6916138, 30.2307243 ] } },
{ "type": "Feature", "properties": { "name": "هليوبوليس الجديدة", "name:en": "New Heliopolis", "railway": "station", "ele": null, "operator:type": null, "layer": null, "addr:full": null, "addr:city": null, "source": null, "name:ar": null, "osm_id": 9885252634, "osm_type": "nodes" }, "geometry": { "type": "Point", "coordinates": [ 31.6526735, 30.1837293 ] } },
{ "type": "Feature", "properties": { "name": "الإسماعيلية", "name:en": "Al-Ismailia", "railway": "station", "ele": null, "operator:type": null, "layer": null, "addr:full": null, "addr:city": null, "source": null, "name:ar": "الإسماعيلية", "osm_id": 1018510154, "osm_type": "nodes" }, "geometry": { "type": "Point", "coordinates": [ 32.2700587, 30.5933313 ] } },
{ "type": "Feature", "properties": { "name": "محطة البلاح", "name:en": "Mahattat al Ballah", "railway": "station", "ele": null, "operator:type": null, "layer": null, "addr:full": null, "addr:city": null, "source": null, "name:ar": "محطة البلاح", "osm_id": 1521683874, "osm_type": "nodes" }, "geometry": { "type": "Point", "coordinates": [ 32.3166821, 30.7708766 ] } },
{ "type": "Feature", "properties": { "name": "سراي القبة", "name:en": "Saray Al-Qobba", "railway": "station", "ele": null, "operator:type": null, "layer": null, "addr:full": null, "addr:city": null, "source": null, "name:ar": "سراي القبة", "osm_id": 5349031074, "osm_type": "nodes" }, "geometry": { "type": "Point", "coordinates": [ 31.3047494, 30.0980698 ] } },
{ "type": "Feature", "properties": { "name": null, "name:en": null, "railway": "station", "ele": null, "operator:type": null, "layer": null, "addr:full": null, "addr:city": null, "source": null, "name:ar": null, "osm_id": 10657362291, "osm_type": "nodes" }, "geometry": { "type": "Point", "coordinates": [ 32.2935708, 30.331617 ] } },
{ "type": "Feature", "properties": { "name": "دسوق", "name:en": "Desouk", "railway": "station", "ele": null, "operator:type": null, "layer": null, "addr:full": null, "addr:city": "دسوق", "source": null, "name:ar": "دسوق", "osm_id": 1024994600, "osm_type": "nodes" }, "geometry": { "type": "Point", "coordinates": [ 30.6414413, 31.1325999 ] } },
{ "type": "Feature", "properties": { "name": "محطة فنارة", "name:en": "Mahattat Fanarah", "railway": "station", "ele": null, "operator:type": null, "layer": null, "addr:full": null, "addr:city": null, "source": null, "name:ar": "محطة فنارة", "osm_id": 1521665589, "osm_type": "nodes" }, "geometry": { "type": "Point", "coordinates": [ 32.3479299, 30.2767059 ] } },
{ "type": "Feature", "properties": { "name": null, "name:en": null, "railway": "station", "ele": null, "operator:type": null, "layer": null, "addr:full": null, "addr:city": null, "source": null, "name:ar": null, "osm_id": 10680199231, "osm_type": "nodes" }, "geometry": { "type": "Point", "coordinates": [ 32.3913143, 30.0728802 ] } },
{ "type": "Feature", "properties": { "name": null, "name:en": null, "railway": "station", "ele": null, "operator:type": null, "layer": null, "addr:full": null, "addr:city": null, "source": null, "name:ar": null, "osm_id": 10680962316, "osm_type": "nodes" }, "geometry": { "type": "Point", "coordinates": [ 31.9864514, 30.1546004 ] } },
{ "type": "Feature", "properties": { "name": null, "name:en": null, "railway": "station", "ele": null, "operator:type": null, "layer": null, "addr:full": null, "addr:city": null, "source": null, "name:ar": null, "osm_id": 10665042092, "osm_type": "nodes" }, "geometry": { "type": "Point", "coordinates": [ 32.4027992, 30.2498379 ] } },
{ "type": "Feature", "properties": { "name": null, "name:en": null, "railway": "station", "ele": null, "operator:type": null, "layer": null, "addr:full": null, "addr:city": null, "source": null, "name:ar": null, "osm_id": 3745060290, "osm_type": "nodes" }, "geometry": { "type": "Point", "coordinates": [ 30.9593688, 30.9681076 ] } },
{ "type": "Feature", "properties": { "name": "محطة جنيفة", "name:en": "Gineifa", "railway": "station", "ele": null, "operator:type": null, "layer": null, "addr:full": null, "addr:city": null, "source": null, "name:ar": "محطة جنيفة", "osm_id": 1521661692, "osm_type": "nodes" }, "geometry": { "type": "Point", "coordinates": [ 32.4277744, 30.2067292 ] } },
{ "type": "Feature", "properties": { "name": "الزهراء", "name:en": "Al-Zahraa", "railway": "station", "ele": null, "operator:type": null, "layer": null, "addr:full": null, "addr:city": null, "source": null, "name:ar": "الزهراء", "osm_id": 5194246950, "osm_type": "nodes" }, "geometry": { "type": "Point", "coordinates": [ 31.2315251, 29.9952525 ] } },
{ "type": "Feature", "properties": { "name": "ساقية مكي", "name:en": "Sakiat Mekki", "railway": "station", "ele": null, "operator:type": null, "layer": null, "addr:full": null, "addr:city": null, "source": null, "name:ar": "ساقية مكي", "osm_id": 9160395525, "osm_type": "nodes" }, "geometry": { "type": "Point", "coordinates": [ 31.208614, 29.9954853 ] } },
{ "type": "Feature", "properties": { "name": null, "name:en": null, "railway": "station", "ele": null, "operator:type": null, "layer": null, "addr:full": null, "addr:city": null, "source": null, "name:ar": null, "osm_id": 10680908401, "osm_type": "nodes" }, "geometry": { "type": "Point", "coordinates": [ 32.2022644, 30.1264499 ] } },
{ "type": "Feature", "properties": { "name": "محطة قطار المنتزة", "name:en": "Montazah", "railway": "station", "ele": null, "operator:type": null, "layer": null, "addr:full": null, "addr:city": null, "source": null, "name:ar": "محطة المنتزة", "osm_id": 1885009800, "osm_type": "nodes" }, "geometry": { "type": "Point", "coordinates": [ 30.0214287, 31.28295 ] } },
{ "type": "Feature", "properties": { "name": "المعدية", "name:en": "El-Ma'addieh", "railway": "station", "ele": null, "operator:type": null, "layer": null, "addr:full": null, "addr:city": null, "source": null, "name:ar": null, "osm_id": 10601354316, "osm_type": "nodes" }, "geometry": { "type": "Point", "coordinates": [ 30.1738736, 31.2671612 ] } },
{ "type": "Feature", "properties": { "name": "محطة أبا الوقف", "name:en": "Aba al Waqf", "railway": "station", "ele": null, "operator:type": null, "layer": null, "addr:full": null, "addr:city": null, "source": null, "name:ar": "محطة أبا الوقف", "osm_id": 2718667239, "osm_type": "nodes" }, "geometry": { "type": "Point", "coordinates": [ 30.8148245, 28.5832181 ] } },
{ "type": "Feature", "properties": { "name": null, "name:en": null, "railway": "station", "ele": null, "operator:type": null, "layer": null, "addr:full": null, "addr:city": null, "source": null, "name:ar": null, "osm_id": 10570696028, "osm_type": "nodes" }, "geometry": { "type": "Point", "coordinates": [ 30.8094545, 30.7397335 ] } },
{ "type": "Feature", "properties": { "name": "جرجا", "name:en": "Gerga", "railway": "station", "ele": null, "operator:type": null, "layer": null, "addr:full": null, "addr:city": null, "source": null, "name:ar": "جرجا", "osm_id": 520511965, "osm_type": "nodes" }, "geometry": { "type": "Point", "coordinates": [ 31.889107, 26.3364072 ] } },
{ "type": "Feature", "properties": { "name": "محطة البليانا الجديدة", "name:en": "Al Balyana", "railway": "station", "ele": null, "operator:type": null, "layer": null, "addr:full": null, "addr:city": null, "source": null, "name:ar": "محطة البليانا الجديدة", "osm_id": 768085014, "osm_type": "nodes" }, "geometry": { "type": "Point", "coordinates": [ 31.9972169, 26.2348173 ] } },
{ "type": "Feature", "properties": { "name": "Baris", "name:en": null, "railway": "station", "ele": null, "operator:type": null, "layer": null, "addr:full": null, "addr:city": null, "source": null, "name:ar": null, "osm_id": 336223060, "osm_type": "nodes" }, "geometry": { "type": "Point", "coordinates": [ 30.599294, 24.7066449 ] } },
{ "type": "Feature", "properties": { "name": "الخارجة", "name:en": "Kharga", "railway": "station", "ele": null, "operator:type": null, "layer": null, "addr:full": null, "addr:city": null, "source": null, "name:ar": "الخارجة", "osm_id": 1144106978, "osm_type": "nodes" }, "geometry": { "type": "Point", "coordinates": [ 30.5552165, 25.3896804 ] } },
{ "type": "Feature", "properties": { "name": null, "name:en": null, "railway": "station", "ele": null, "operator:type": null, "layer": null, "addr:full": null, "addr:city": null, "source": null, "name:ar": null, "osm_id": 3736064406, "osm_type": "nodes" }, "geometry": { "type": "Point", "coordinates": [ 30.5561684, 25.0644948 ] } },
{ "type": "Feature", "properties": { "name": "محطة قطار المعمورة", "name:en": "Maamoura", "railway": "station", "ele": null, "operator:type": null, "layer": null, "addr:full": null, "addr:city": null, "source": null, "name:ar": "محطة المعمورة", "osm_id": 1039956176, "osm_type": "nodes" }, "geometry": { "type": "Point", "coordinates": [ 30.0538727, 31.2941533 ] } },
{ "type": "Feature", "properties": { "name": "بني قرة", "name:en": "Bani Qurrah", "railway": "station", "ele": null, "operator:type": null, "layer": null, "addr:full": null, "addr:city": null, "source": null, "name:ar": "بني قرة", "osm_id": 768091620, "osm_type": "nodes" }, "geometry": { "type": "Point", "coordinates": [ 30.8936852, 27.3872227 ] } },
{ "type": "Feature", "properties": { "name": "نزالي جانوب", "name:en": "Nazali Ganub", "railway": "station", "ele": null, "operator:type": null, "layer": null, "addr:full": null, "addr:city": null, "source": null, "name:ar": "نزالي جانوب", "osm_id": 768730269, "osm_type": "nodes" }, "geometry": { "type": "Point", "coordinates": [ 30.8331136, 27.438287 ] } },
{ "type": "Feature", "properties": { "name": "محطة رمسيس", "name:en": "Ramses Station", "railway": "station", "ele": null, "operator:type": null, "layer": null, "addr:full": null, "addr:city": null, "source": null, "name:ar": "محطة رمسيس", "osm_id": 271864421, "osm_type": "nodes" }, "geometry": { "type": "Point", "coordinates": [ 31.2460533, 30.0629785 ] } },
{ "type": "Feature", "properties": { "name": "برج العرب", "name:en": null, "railway": "station", "ele": null, "operator:type": null, "layer": null, "addr:full": null, "addr:city": null, "source": null, "name:ar": "برج العرب", "osm_id": 318014918, "osm_type": "nodes" }, "geometry": { "type": "Point", "coordinates": [ 29.5488069, 30.8955044 ] } },
{ "type": "Feature", "properties": { "name": "بلبيس", "name:en": "Bilbeis", "railway": "station", "ele": null, "operator:type": null, "layer": null, "addr:full": null, "addr:city": null, "source": null, "name:ar": "بلبيس", "osm_id": 1039233382, "osm_type": "nodes" }, "geometry": { "type": "Point", "coordinates": [ 31.5564454, 30.4284117 ] } },
{ "type": "Feature", "properties": { "name": "برج العرب الجديدة", "name:en": "New Borg El Arab", "railway": "station", "ele": null, "operator:type": null, "layer": null, "addr:full": null, "addr:city": null, "source": null, "name:ar": "برج العرب الجديدة", "osm_id": 3735776182, "osm_type": "nodes" }, "geometry": { "type": "Point", "coordinates": [ 29.5936194, 30.8869787 ] } },
{ "type": "Feature", "properties": { "name": "عزبة محمد فريد", "name:en": null, "railway": "station", "ele": null, "operator:type": null, "layer": null, "addr:full": null, "addr:city": null, "source": null, "name:ar": "عزبة محمد فريد", "osm_id": 10554265763, "osm_type": "nodes" }, "geometry": { "type": "Point", "coordinates": [ 29.6177923, 30.8619616 ] } },
{ "type": "Feature", "properties": { "name": "الأقصر", "name:en": "Luxor", "railway": "station", "ele": null, "operator:type": null, "layer": null, "addr:full": null, "addr:city": null, "source": null, "name:ar": "الأقصر", "osm_id": 1018818485, "osm_type": "nodes" }, "geometry": { "type": "Point", "coordinates": [ 32.6449661, 25.6965417 ] } },
{ "type": "Feature", "properties": { "name": "محطة قطار سيدى جابر", "name:en": "Sidi Gaber Train Station", "railway": "station", "ele": null, "operator:type": null, "layer": null, "addr:full": null, "addr:city": null, "source": null, "name:ar": "محطة قطار سيدى جابر", "osm_id": 3605745439, "osm_type": "nodes" }, "geometry": { "type": "Point", "coordinates": [ 29.942465, 31.2189912 ] } },
{ "type": "Feature", "properties": { "name": "محطة مترو كلية البنات", "name:en": "Koleyet El Banat subway station", "railway": "station", "ele": null, "operator:type": null, "layer": null, "addr:full": null, "addr:city": null, "source": null, "name:ar": "محطة مترو كلية البنات", "osm_id": 5007646022, "osm_type": "nodes" }, "geometry": { "type": "Point", "coordinates": [ 31.3292503, 30.0843667 ] } },
{ "type": "Feature", "properties": { "name": "Rod Al-Farag Corridor", "name:en": "Rod Al-Farag Corridor", "railway": "station", "ele": null, "operator:type": null, "layer": null, "addr:full": null, "addr:city": null, "source": null, "name:ar": null, "osm_id": 11495591793, "osm_type": "nodes" }, "geometry": { "type": "Point", "coordinates": [ 31.1841656, 30.1018837 ] } },
{ "type": "Feature", "properties": { "name": "Ring Road", "name:en": "Ring Road", "railway": "station", "ele": null, "operator:type": null, "layer": null, "addr:full": null, "addr:city": null, "source": null, "name:ar": null, "osm_id": 11495591819, "osm_type": "nodes" }, "geometry": { "type": "Point", "coordinates": [ 31.1995819, 30.0964108 ] } },
{ "type": "Feature", "properties": { "name": "Al-Kawmeiah", "name:en": "Al-Kawmeiah", "railway": "station", "ele": null, "operator:type": null, "layer": null, "addr:full": null, "addr:city": null, "source": null, "name:ar": null, "osm_id": 11495591841, "osm_type": "nodes" }, "geometry": { "type": "Point", "coordinates": [ 31.2088797, 30.0932033 ] } },
{ "type": "Feature", "properties": { "name": "Al-Bohy", "name:en": "Al-Bohy", "railway": "station", "ele": null, "operator:type": null, "layer": null, "addr:full": null, "addr:city": null, "source": null, "name:ar": null, "osm_id": 11495591842, "osm_type": "nodes" }, "geometry": { "type": "Point", "coordinates": [ 31.2104856, 30.0821151 ] } },
{ "type": "Feature", "properties": { "name": "Imbaba", "name:en": "Imbaba", "railway": "station", "ele": null, "operator:type": null, "layer": null, "addr:full": null, "addr:city": null, "source": null, "name:ar": null, "osm_id": 11495591853, "osm_type": "nodes" }, "geometry": { "type": "Point", "coordinates": [ 31.2075611, 30.0759487 ] } },
{ "type": "Feature", "properties": { "name": "Sudan", "name:en": "Sudan", "railway": "station", "ele": null, "operator:type": null, "layer": null, "addr:full": null, "addr:city": null, "source": null, "name:ar": null, "osm_id": 11495611079, "osm_type": "nodes" }, "geometry": { "type": "Point", "coordinates": [ 31.2053352, 30.0697816 ] } },
{ "type": "Feature", "properties": { "name": "محطة الروبيكي", "name:en": "Mahattat al Rubayqi", "railway": "station", "ele": null, "operator:type": null, "layer": null, "addr:full": null, "addr:city": null, "source": null, "name:ar": "محطة الروبيكي", "osm_id": 768766285, "osm_type": "nodes" }, "geometry": { "type": "Point", "coordinates": [ 31.7714641, 30.1690624 ] } },
{ "type": "Feature", "properties": { "name": "مدينة الفنون و الثقافة", "name:en": "Arts and Culture City", "railway": "station", "ele": null, "operator:type": null, "layer": null, "addr:full": null, "addr:city": null, "source": null, "name:ar": "مدينة الفنون و الثقافة", "osm_id": 9885200015, "osm_type": "nodes" }, "geometry": { "type": "Point", "coordinates": [ 31.7251709, 30.0137192 ] } },
{ "type": "Feature", "properties": { "name": "محطة الروبيكي", "name:en": "El-Robaiky", "railway": "station", "ele": null, "operator:type": null, "layer": null, "addr:full": null, "addr:city": null, "source": null, "name:ar": null, "osm_id": 9885200016, "osm_type": "nodes" }, "geometry": { "type": "Point", "coordinates": [ 31.7524946, 30.1665242 ] } },
{ "type": "Feature", "properties": { "name": "حدائق العاصمة", "name:en": "Hadayek al-Assema", "railway": "station", "ele": null, "operator:type": null, "layer": null, "addr:full": null, "addr:city": null, "source": null, "name:ar": null, "osm_id": 9885199998, "osm_type": "nodes" }, "geometry": { "type": "Point", "coordinates": [ 31.8067825, 30.1366817 ] } },
{ "type": "Feature", "properties": { "name": "مطار العاصمة", "name:en": "Capital Airport", "railway": "station", "ele": null, "operator:type": null, "layer": null, "addr:full": null, "addr:city": null, "source": null, "name:ar": null, "osm_id": 9885200014, "osm_type": "nodes" }, "geometry": { "type": "Point", "coordinates": [ 31.7824843, 30.0758949 ] } },
{ "type": "Feature", "properties": { "name": "العلمين", "name:en": "Al Alamayn", "railway": "station", "ele": null, "operator:type": null, "layer": null, "addr:full": null, "addr:city": null, "source": null, "name:ar": "العلمين", "osm_id": 1889457787, "osm_type": "nodes" }, "geometry": { "type": "Point", "coordinates": [ 28.9562637, 30.8245427 ] } },
{ "type": "Feature", "properties": { "name": "محطة العسيرات", "name:en": "Mahattat al Asirat", "railway": "station", "ele": null, "operator:type": null, "layer": null, "addr:full": null, "addr:city": null, "source": null, "name:ar": "محطة العسيرات", "osm_id": 768582840, "osm_type": "nodes" }, "geometry": { "type": "Point", "coordinates": [ 31.8201936, 26.3912967 ] } },
{ "type": "Feature", "properties": { "name": "محطة سكة حديد أسوان", "name:en": "Aswan Train Station", "railway": "station", "ele": null, "operator:type": null, "layer": null, "addr:full": null, "addr:city": null, "source": null, "name:ar": "محطة سكة حديد أسوان", "osm_id": 321239620, "osm_type": "nodes" }, "geometry": { "type": "Point", "coordinates": [ 32.9025252, 24.0997955 ] } }
]
}
